<?xml version='1.0' encoding='UTF-8'?><gpx version="1.1" creator="Garmin Sports" xmlns="http://www.topografix.com/GPX/1/1"><metadata><author><name>Garmin Sports</name></author><copyright author="Garmin Sports"><year>2026</year></copyright></metadata><trk><trkseg><trkpt lat="37.582767486572266" lon="127.02220916748047"><ele>7.800000190734863</ele><time>2026-07-24T10:16:44Z</time></trkpt><trkpt lat="37.582740783691406" lon="127.02222442626953"><ele>7.800000190734863</ele><time>2026-07-24T10:16:45Z</time></trkpt><trkpt lat="37.58271026611328" lon="127.02225494384766"><ele>7.800000190734863</ele><time>2026-07-24T10:16:46Z</time></trkpt><trkpt lat="37.58269119262695" lon="127.02226257324219"><ele>7.800000190734863</ele><time>2026-07-24T10:16:47Z</time></trkpt><trkpt lat="37.58266067504883" lon="127.02227020263672"><ele>7.800000190734863</ele><time>2026-07-24T10:16:48Z</time></trkpt><trkpt lat="37.58264923095703" lon="127.02229309082031"><ele>7.800000190734863</ele><time>2026-07-24T10:16:49Z</time></trkpt><trkpt lat="37.58262634277344" lon="127.02230072021484"><ele>7.800000190734863</ele><time>2026-07-24T10:16:50Z</time></trkpt><trkpt lat="37.58259582519531" lon="127.0223159790039"><ele>7.800000190734863</ele><time>2026-07-24T10:16:51Z</time></trkpt><trkpt lat="37.58257293701172" lon="127.0223159790039"><ele>7.599999904632568</ele><time>2026-07-24T10:16:52Z</time></trkpt><trkpt lat="37.582550048828125" lon="127.02233123779297"><ele>7.599999904632568</ele><time>2026-07-24T10:16:53Z</time></trkpt><trkpt lat="37.582523345947266" lon="127.02234649658203"><ele>7.800000190734863</ele><time>2026-07-24T10:16:54Z</time></trkpt><trkpt lat="37.58250427246094" lon="127.02235412597656"><ele>7.599999904632568</ele><time>2026-07-24T10:16:55Z</time></trkpt><trkpt lat="37.58247756958008" lon="127.0223617553711"><ele>7.599999904632568</ele><time>2026-07-24T10:16:56Z</time></trkpt><trkpt lat="37.58245849609375" lon="127.0223617553711"><ele>7.599999904632568</ele><time>2026-07-24T10:16:57Z</time></trkpt><trkpt lat="37.58243942260742" lon="127.02238464355469"><ele>7.400000095367432</ele><time>2026-07-24T10:16:58Z</time></trkpt><trkpt lat="37.58241653442383" lon="127.02239227294922"><ele>7.400000095367432</ele><time>2026-07-24T10:16:59Z</time></trkpt><trkpt lat="37.58240509033203" lon="127.02239990234375"><ele>7.599999904632568</ele><time>2026-07-24T10:17:00Z</time></trkpt><trkpt lat="37.58238220214844" lon="127.02241516113281"><ele>7.599999904632568</ele><time>2026-07-24T10:17:01Z</time></trkpt><trkpt lat="37.582366943359375" lon="127.02241516113281"><ele>7.599999904632568</ele><time>2026-07-24T10:17:02Z</time></trkpt><trkpt lat="37.58235168457031" lon="127.0224380493164"><ele>7.400000095367432</ele><time>2026-07-24T10:17:03Z</time></trkpt><trkpt lat="37.582332611083984" lon="127.02244567871094"><ele>7.199999809265137</ele><time>2026-07-24T10:17:04Z</time></trkpt><trkpt lat="37.582313537597656" lon="127.0224609375"><ele>7.0</ele><time>2026-07-24T10:17:05Z</time></trkpt><trkpt lat="37.58229064941406" lon="127.02246856689453"><ele>6.800000190734863</ele><time>2026-07-24T10:17:06Z</time></trkpt><trkpt lat="37.58226776123047" lon="127.0224838256836"><ele>6.800000190734863</ele><time>2026-07-24T10:17:07Z</time></trkpt><trkpt lat="37.58224868774414" lon="127.0224838256836"><ele>6.800000190734863</ele><time>2026-07-24T10:17:08Z</time></trkpt><trkpt lat="37.58224105834961" lon="127.02249908447266"><ele>6.800000190734863</ele><time>2026-07-24T10:17:09Z</time></trkpt><trkpt lat="37.58222579956055" lon="127.02251434326172"><ele>6.800000190734863</ele><time>2026-07-24T10:17:10Z</time></trkpt><trkpt lat="37.58219909667969" lon="127.02252960205078"><ele>7.0</ele><time>2026-07-24T10:17:11Z</time></trkpt><trkpt lat="37.58217239379883" lon="127.02253723144531"><ele>7.0</ele><time>2026-07-24T10:17:12Z</time></trkpt><trkpt lat="37.582149505615234" lon="127.02255249023438"><ele>7.199999809265137</ele><time>2026-07-24T10:17:13Z</time></trkpt><trkpt lat="37.58211898803711" lon="127.02256774902344"><ele>7.199999809265137</ele><time>2026-07-24T10:17:14Z</time></trkpt><trkpt lat="37.582096099853516" lon="127.02257537841797"><ele>7.199999809265137</ele><time>2026-07-24T10:17:15Z</time></trkpt><trkpt lat="37.582069396972656" lon="127.0225830078125"><ele>7.199999809265137</ele><time>2026-07-24T10:17:16Z</time></trkpt><trkpt lat="37.58203887939453" lon="127.02259826660156"><ele>7.199999809265137</ele><time>2026-07-24T10:17:17Z</time></trkpt><trkpt lat="37.58202362060547" lon="127.0226058959961"><ele>7.400000095367432</ele><time>2026-07-24T10:17:18Z</time></trkpt><trkpt lat="37.58200454711914" lon="127.02262115478516"><ele>7.400000095367432</ele><time>2026-07-24T10:17:19Z</time></trkpt><trkpt lat="37.58198547363281" lon="127.02263641357422"><ele>7.199999809265137</ele><time>2026-07-24T10:17:20Z</time></trkpt><trkpt lat="37.581966400146484" lon="127.02265167236328"><ele>7.199999809265137</ele><time>2026-07-24T10:17:21Z</time></trkpt><trkpt lat="37.58194351196289" lon="127.02265930175781"><ele>7.400000095367432</ele><time>2026-07-24T10:17:22Z</time></trkpt><trkpt lat="37.58192443847656" lon="127.02266693115234"><ele>7.400000095367432</ele><time>2026-07-24T10:17:23Z</time></trkpt><trkpt lat="37.5818977355957" lon="127.0226821899414"><ele>7.400000095367432</ele><time>2026-07-24T10:17:24Z</time></trkpt><trkpt lat="37.58188247680664" lon="127.02268981933594"><ele>7.400000095367432</ele><time>2026-07-24T10:17:25Z</time></trkpt><trkpt lat="37.58186340332031" lon="127.022705078125"><ele>7.400000095367432</ele><time>2026-07-24T10:17:26Z</time></trkpt><trkpt lat="37.58183670043945" lon="127.02271270751953"><ele>7.400000095367432</ele><time>2026-07-24T10:17:27Z</time></trkpt><trkpt lat="37.58182144165039" lon="127.02271270751953"><ele>7.400000095367432</ele><time>2026-07-24T10:17:28Z</time></trkpt><trkpt lat="37.58179473876953" lon="127.0227279663086"><ele>7.400000095367432</ele><time>2026-07-24T10:17:29Z</time></trkpt><trkpt lat="37.58176803588867" lon="127.02273559570312"><ele>7.199999809265137</ele><time>2026-07-24T10:17:30Z</time></trkpt><trkpt lat="37.581748962402344" lon="127.02275848388672"><ele>7.199999809265137</ele><time>2026-07-24T10:17:31Z</time></trkpt><trkpt lat="37.58172607421875" lon="127.02277374267578"><ele>7.199999809265137</ele><time>2026-07-24T10:17:32Z</time></trkpt><trkpt lat="37.58171081542969" lon="127.02278900146484"><ele>7.199999809265137</ele><time>2026-07-24T10:17:33Z</time></trkpt><trkpt lat="37.58168411254883" lon="127.02279663085938"><ele>7.199999809265137</ele><time>2026-07-24T10:17:34Z</time></trkpt><trkpt lat="37.581668853759766" lon="127.02281188964844"><ele>7.199999809265137</ele><time>2026-07-24T10:17:35Z</time></trkpt><trkpt lat="37.58164596557617" lon="127.0228271484375"><ele>7.400000095367432</ele><time>2026-07-24T10:17:36Z</time></trkpt><trkpt lat="37.581626892089844" lon="127.0228500366211"><ele>7.400000095367432</ele><time>2026-07-24T10:17:37Z</time></trkpt><trkpt lat="37.58161163330078" lon="127.02286529541016"><ele>7.400000095367432</ele><time>2026-07-24T10:17:38Z</time></trkpt><trkpt lat="37.581581115722656" lon="127.02287292480469"><ele>7.400000095367432</ele><time>2026-07-24T10:17:39Z</time></trkpt><trkpt lat="37.58155822753906" lon="127.02288055419922"><ele>7.400000095367432</ele><time>2026-07-24T10:17:40Z</time></trkpt><trkpt lat="37.581539154052734" lon="127.02289581298828"><ele>7.400000095367432</ele><time>2026-07-24T10:17:41Z</time></trkpt><trkpt lat="37.581512451171875" lon="127.02291107177734"><ele>7.400000095367432</ele><time>2026-07-24T10:17:42Z</time></trkpt><trkpt lat="37.58149337768555" lon="127.02291107177734"><ele>7.199999809265137</ele><time>2026-07-24T10:17:43Z</time></trkpt><trkpt lat="37.58146286010742" lon="127.02291870117188"><ele>7.199999809265137</ele><time>2026-07-24T10:17:44Z</time></trkpt><trkpt lat="37.58143997192383" lon="127.0229263305664"><ele>7.199999809265137</ele><time>2026-07-24T10:17:45Z</time></trkpt><trkpt lat="37.5814208984375" lon="127.02294158935547"><ele>7.0</ele><time>2026-07-24T10:17:46Z</time></trkpt><trkpt lat="37.58139419555664" lon="127.02294921875"><ele>7.0</ele><time>2026-07-24T10:17:47Z</time></trkpt><trkpt lat="37.58137512207031" lon="127.02295684814453"><ele>7.0</ele><time>2026-07-24T10:17:48Z</time></trkpt><trkpt lat="37.581356048583984" lon="127.0229721069336"><ele>7.0</ele><time>2026-07-24T10:17:49Z</time></trkpt><trkpt lat="37.58133316040039" lon="127.02298736572266"><ele>7.0</ele><time>2026-07-24T10:17:50Z</time></trkpt><trkpt lat="37.58131790161133" lon="127.02299499511719"><ele>7.0</ele><time>2026-07-24T10:17:51Z</time></trkpt><trkpt lat="37.58129119873047" lon="127.02301025390625"><ele>6.800000190734863</ele><time>2026-07-24T10:17:52Z</time></trkpt><trkpt lat="37.58127212524414" lon="127.02301788330078"><ele>6.800000190734863</ele><time>2026-07-24T10:17:53Z</time></trkpt><trkpt lat="37.58125305175781" lon="127.02303314208984"><ele>6.800000190734863</ele><time>2026-07-24T10:17:54Z</time></trkpt><trkpt lat="37.58123016357422" lon="127.02304077148438"><ele>6.800000190734863</ele><time>2026-07-24T10:17:55Z</time></trkpt><trkpt lat="37.581207275390625" lon="127.02306365966797"><ele>6.800000190734863</ele><time>2026-07-24T10:17:56Z</time></trkpt><trkpt lat="37.58118438720703" lon="127.02307891845703"><ele>6.800000190734863</ele><time>2026-07-24T10:17:57Z</time></trkpt><trkpt lat="37.581172943115234" lon="127.0230941772461"><ele>7.0</ele><time>2026-07-24T10:17:58Z</time></trkpt><trkpt lat="37.581153869628906" lon="127.02311706542969"><ele>7.0</ele><time>2026-07-24T10:17:59Z</time></trkpt><trkpt lat="37.58113479614258" lon="127.02312469482422"><ele>7.0</ele><time>2026-07-24T10:18:00Z</time></trkpt><trkpt lat="37.58111572265625" lon="127.02313995361328"><ele>7.0</ele><time>2026-07-24T10:18:01Z</time></trkpt><trkpt lat="37.58108901977539" lon="127.02316284179688"><ele>6.800000190734863</ele><time>2026-07-24T10:18:02Z</time></trkpt><trkpt lat="37.58107376098633" lon="127.0231704711914"><ele>6.800000190734863</ele><time>2026-07-24T10:18:03Z</time></trkpt><trkpt lat="37.581050872802734" lon="127.02317810058594"><ele>6.599999904632568</ele><time>2026-07-24T10:18:04Z</time></trkpt><trkpt lat="37.58102798461914" lon="127.02318572998047"><ele>6.599999904632568</ele><time>2026-07-24T10:18:05Z</time></trkpt><trkpt lat="37.58100891113281" lon="127.023193359375"><ele>6.800000190734863</ele><time>2026-07-24T10:18:06Z</time></trkpt><trkpt lat="37.58098220825195" lon="127.0232162475586"><ele>6.800000190734863</ele><time>2026-07-24T10:18:07Z</time></trkpt><trkpt lat="37.580970764160156" lon="127.02322387695312"><ele>6.800000190734863</ele><time>2026-07-24T10:18:08Z</time></trkpt><trkpt lat="37.5809440612793" lon="127.02323913574219"><ele>6.800000190734863</ele><time>2026-07-24T10:18:09Z</time></trkpt><trkpt lat="37.5809211730957" lon="127.02324676513672"><ele>6.599999904632568</ele><time>2026-07-24T10:18:10Z</time></trkpt><trkpt lat="37.580902099609375" lon="127.02326202392578"><ele>6.599999904632568</ele><time>2026-07-24T10:18:11Z</time></trkpt><trkpt lat="37.580875396728516" lon="127.02327728271484"><ele>6.599999904632568</ele><time>2026-07-24T10:18:12Z</time></trkpt><trkpt lat="37.58086013793945" lon="127.02328491210938"><ele>6.599999904632568</ele><time>2026-07-24T10:18:13Z</time></trkpt><trkpt lat="37.580833435058594" lon="127.02330017089844"><ele>6.599999904632568</ele><time>2026-07-24T10:18:14Z</time></trkpt><trkpt lat="37.580810546875" lon="127.02330017089844"><ele>6.599999904632568</ele><time>2026-07-24T10:18:15Z</time></trkpt><trkpt lat="37.58079528808594" lon="127.0233154296875"><ele>6.599999904632568</ele><time>2026-07-24T10:18:16Z</time></trkpt><trkpt lat="37.58076858520508" lon="127.02333068847656"><ele>6.599999904632568</ele><time>2026-07-24T10:18:17Z</time></trkpt><trkpt lat="37.58074951171875" lon="127.0233383178711"><ele>6.599999904632568</ele><time>2026-07-24T10:18:18Z</time></trkpt><trkpt lat="37.580726623535156" lon="127.02335357666016"><ele>6.599999904632568</ele><time>2026-07-24T10:18:19Z</time></trkpt><trkpt lat="37.58070373535156" lon="127.02336120605469"><ele>6.400000095367432</ele><time>2026-07-24T10:18:20Z</time></trkpt><trkpt lat="37.5806884765625" lon="127.02338409423828"><ele>6.400000095367432</ele><time>2026-07-24T10:18:21Z</time></trkpt><trkpt lat="37.58067321777344" lon="127.02339935302734"><ele>6.400000095367432</ele><time>2026-07-24T10:18:22Z</time></trkpt><trkpt lat="37.58065414428711" lon="127.0234146118164"><ele>6.400000095367432</ele><time>2026-07-24T10:18:23Z</time></trkpt><trkpt lat="37.58063507080078" lon="127.02342987060547"><ele>6.400000095367432</ele><time>2026-07-24T10:18:24Z</time></trkpt><trkpt lat="37.58061599731445" lon="127.02344512939453"><ele>6.400000095367432</ele><time>2026-07-24T10:18:25Z</time></trkpt><trkpt lat="37.580596923828125" lon="127.0234603881836"><ele>6.400000095367432</ele><time>2026-07-24T10:18:26Z</time></trkpt><trkpt lat="37.5805778503418" lon="127.02348327636719"><ele>6.199999809265137</ele><time>2026-07-24T10:18:27Z</time></trkpt><trkpt lat="37.580562591552734" lon="127.02346801757812"><ele>6.199999809265137</ele><time>2026-07-24T10:18:28Z</time></trkpt><trkpt lat="37.58054733276367" lon="127.02347564697266"><ele>6.199999809265137</ele><time>2026-07-24T10:18:29Z</time></trkpt><trkpt lat="37.58052062988281" lon="127.02349853515625"><ele>6.199999809265137</ele><time>2026-07-24T10:18:30Z</time></trkpt><trkpt lat="37.58049392700195" lon="127.02349853515625"><ele>6.400000095367432</ele><time>2026-07-24T10:18:31Z</time></trkpt><trkpt lat="37.580474853515625" lon="127.02351379394531"><ele>6.400000095367432</ele><time>2026-07-24T10:18:32Z</time></trkpt><trkpt lat="37.580448150634766" lon="127.02352905273438"><ele>6.400000095367432</ele><time>2026-07-24T10:18:33Z</time></trkpt><trkpt lat="37.58042526245117" lon="127.02354431152344"><ele>6.400000095367432</ele><time>2026-07-24T10:18:34Z</time></trkpt><trkpt lat="37.58039474487305" lon="127.0235595703125"><ele>6.400000095367432</ele><time>2026-07-24T10:18:35Z</time></trkpt><trkpt lat="37.58037567138672" lon="127.02356719970703"><ele>6.400000095367432</ele><time>2026-07-24T10:18:36Z</time></trkpt><trkpt lat="37.58035659790039" lon="127.0235824584961"><ele>6.400000095367432</ele><time>2026-07-24T10:18:37Z</time></trkpt><trkpt lat="37.58032989501953" lon="127.02359771728516"><ele>6.400000095367432</ele><time>2026-07-24T10:18:38Z</time></trkpt><trkpt lat="37.58030319213867" lon="127.02359771728516"><ele>6.400000095367432</ele><time>2026-07-24T10:18:39Z</time></trkpt><trkpt lat="37.58028030395508" lon="127.02360534667969"><ele>6.199999809265137</ele><time>2026-07-24T10:18:40Z</time></trkpt><trkpt lat="37.580257415771484" lon="127.02361297607422"><ele>6.199999809265137</ele><time>2026-07-24T10:18:41Z</time></trkpt><trkpt lat="37.580238342285156" lon="127.02363586425781"><ele>6.199999809265137</ele><time>2026-07-24T10:18:42Z</time></trkpt><trkpt lat="37.58021926879883" lon="127.02365112304688"><ele>6.199999809265137</ele><time>2026-07-24T10:18:43Z</time></trkpt><trkpt lat="37.5802001953125" lon="127.0236587524414"><ele>6.199999809265137</ele><time>2026-07-24T10:18:44Z</time></trkpt><trkpt lat="37.580177307128906" lon="127.02367401123047"><ele>6.199999809265137</ele><time>2026-07-24T10:18:45Z</time></trkpt><trkpt lat="37.58015823364258" lon="127.02367401123047"><ele>6.199999809265137</ele><time>2026-07-24T10:18:46Z</time></trkpt><trkpt lat="37.580135345458984" lon="127.02368927001953"><ele>6.199999809265137</ele><time>2026-07-24T10:18:47Z</time></trkpt><trkpt lat="37.58011245727539" lon="127.02369689941406"><ele>6.199999809265137</ele><time>2026-07-24T10:18:48Z</time></trkpt><trkpt lat="37.58009719848633" lon="127.0237045288086"><ele>6.199999809265137</ele><time>2026-07-24T10:18:49Z</time></trkpt><trkpt lat="37.580074310302734" lon="127.02371215820312"><ele>6.199999809265137</ele><time>2026-07-24T10:18:50Z</time></trkpt><trkpt lat="37.58005142211914" lon="127.02371215820312"><ele>6.199999809265137</ele><time>2026-07-24T10:18:51Z</time></trkpt><trkpt lat="37.58003616333008" lon="127.02371215820312"><ele>6.199999809265137</ele><time>2026-07-24T10:18:52Z</time></trkpt><trkpt lat="37.58001708984375" lon="127.02371978759766"><ele>6.199999809265137</ele><time>2026-07-24T10:18:53Z</time></trkpt><trkpt lat="37.58000183105469" lon="127.02373504638672"><ele>6.199999809265137</ele><time>2026-07-24T10:18:54Z</time></trkpt><trkpt lat="37.579978942871094" lon="127.02375793457031"><ele>6.199999809265137</ele><time>2026-07-24T10:18:55Z</time></trkpt><trkpt lat="37.579959869384766" lon="127.02375793457031"><ele>6.199999809265137</ele><time>2026-07-24T10:18:56Z</time></trkpt><trkpt lat="37.57993698120117" lon="127.02376556396484"><ele>6.199999809265137</ele><time>2026-07-24T10:18:57Z</time></trkpt><trkpt lat="37.579917907714844" lon="127.0237808227539"><ele>6.199999809265137</ele><time>2026-07-24T10:18:58Z</time></trkpt><trkpt lat="37.579898834228516" lon="127.0238037109375"><ele>6.199999809265137</ele><time>2026-07-24T10:18:59Z</time></trkpt><trkpt lat="37.57987976074219" lon="127.02381896972656"><ele>6.199999809265137</ele><time>2026-07-24T10:19:00Z</time></trkpt><trkpt lat="37.579856872558594" lon="127.02381896972656"><ele>6.400000095367432</ele><time>2026-07-24T10:19:01Z</time></trkpt><trkpt lat="37.579837799072266" lon="127.0238265991211"><ele>6.400000095367432</ele><time>2026-07-24T10:19:02Z</time></trkpt><trkpt lat="37.579811096191406" lon="127.02383422851562"><ele>6.400000095367432</ele><time>2026-07-24T10:19:03Z</time></trkpt><trkpt lat="37.579795837402344" lon="127.02384948730469"><ele>6.199999809265137</ele><time>2026-07-24T10:19:04Z</time></trkpt><trkpt lat="37.579776763916016" lon="127.02386474609375"><ele>6.199999809265137</ele><time>2026-07-24T10:19:05Z</time></trkpt><trkpt lat="37.57975769042969" lon="127.02388763427734"><ele>6.199999809265137</ele><time>2026-07-24T10:19:06Z</time></trkpt><trkpt lat="37.579742431640625" lon="127.02391052246094"><ele>6.0</ele><time>2026-07-24T10:19:07Z</time></trkpt><trkpt lat="37.5797233581543" lon="127.02392578125"><ele>6.199999809265137</ele><time>2026-07-24T10:19:08Z</time></trkpt><trkpt lat="37.579708099365234" lon="127.02394104003906"><ele>6.199999809265137</ele><time>2026-07-24T10:19:09Z</time></trkpt><trkpt lat="37.579681396484375" lon="127.02395629882812"><ele>6.199999809265137</ele><time>2026-07-24T10:19:10Z</time></trkpt><trkpt lat="37.57966613769531" lon="127.02396392822266"><ele>6.199999809265137</ele><time>2026-07-24T10:19:11Z</time></trkpt><trkpt lat="37.579647064208984" lon="127.02398681640625"><ele>6.0</ele><time>2026-07-24T10:19:12Z</time></trkpt><trkpt lat="37.57962417602539" lon="127.02400207519531"><ele>6.0</ele><time>2026-07-24T10:19:13Z</time></trkpt><trkpt lat="37.57960510253906" lon="127.0240249633789"><ele>6.0</ele><time>2026-07-24T10:19:14Z</time></trkpt><trkpt lat="37.57958221435547" lon="127.0240478515625"><ele>6.0</ele><time>2026-07-24T10:19:15Z</time></trkpt><trkpt lat="37.57956314086914" lon="127.0240707397461"><ele>6.0</ele><time>2026-07-24T10:19:16Z</time></trkpt><trkpt lat="37.57954025268555" lon="127.02409362792969"><ele>6.0</ele><time>2026-07-24T10:19:17Z</time></trkpt><trkpt lat="37.57951736450195" lon="127.02411651611328"><ele>6.0</ele><time>2026-07-24T10:19:18Z</time></trkpt><trkpt lat="37.57950210571289" lon="127.02413940429688"><ele>6.0</ele><time>2026-07-24T10:19:19Z</time></trkpt><trkpt lat="37.5794792175293" lon="127.02416229248047"><ele>6.0</ele><time>2026-07-24T10:19:20Z</time></trkpt><trkpt lat="37.5794677734375" lon="127.02418518066406"><ele>6.0</ele><time>2026-07-24T10:19:21Z</time></trkpt><trkpt lat="37.57945251464844" lon="127.02420806884766"><ele>5.800000190734863</ele><time>2026-07-24T10:19:22Z</time></trkpt><trkpt lat="37.579437255859375" lon="127.02423095703125"><ele>5.800000190734863</ele><time>2026-07-24T10:19:23Z</time></trkpt><trkpt lat="37.57942199707031" lon="127.02425384521484"><ele>5.800000190734863</ele><time>2026-07-24T10:19:24Z</time></trkpt><trkpt lat="37.57940673828125" lon="127.02427673339844"><ele>6.0</ele><time>2026-07-24T10:19:25Z</time></trkpt><trkpt lat="37.57939147949219" lon="127.02429962158203"><ele>6.0</ele><time>2026-07-24T10:19:26Z</time></trkpt><trkpt lat="37.57938003540039" lon="127.02433013916016"><ele>6.0</ele><time>2026-07-24T10:19:27Z</time></trkpt><trkpt lat="37.579368591308594" lon="127.02435302734375"><ele>6.0</ele><time>2026-07-24T10:19:28Z</time></trkpt><trkpt lat="37.579368591308594" lon="127.02438354492188"><ele>6.0</ele><time>2026-07-24T10:19:29Z</time></trkpt><trkpt lat="37.5793571472168" lon="127.02440643310547"><ele>5.800000190734863</ele><time>2026-07-24T10:19:30Z</time></trkpt><trkpt lat="37.579345703125" lon="127.02442169189453"><ele>5.800000190734863</ele><time>2026-07-24T10:19:31Z</time></trkpt><trkpt lat="37.57933807373047" lon="127.02445220947266"><ele>5.599999904632568</ele><time>2026-07-24T10:19:32Z</time></trkpt><trkpt lat="37.579322814941406" lon="127.02447509765625"><ele>5.400000095367432</ele><time>2026-07-24T10:19:33Z</time></trkpt><trkpt lat="37.57931137084961" lon="127.02449798583984"><ele>5.400000095367432</ele><time>2026-07-24T10:19:34Z</time></trkpt><trkpt lat="37.57929992675781" lon="127.02452087402344"><ele>5.199999809265137</ele><time>2026-07-24T10:19:35Z</time></trkpt><trkpt lat="37.57929229736328" lon="127.02454376220703"><ele>5.199999809265137</ele><time>2026-07-24T10:19:36Z</time></trkpt><trkpt lat="37.579280853271484" lon="127.02456665039062"><ele>5.0</ele><time>2026-07-24T10:19:37Z</time></trkpt><trkpt lat="37.57926940917969" lon="127.02458953857422"><ele>5.0</ele><time>2026-07-24T10:19:38Z</time></trkpt><trkpt lat="37.579261779785156" lon="127.02461242675781"><ele>5.0</ele><time>2026-07-24T10:19:39Z</time></trkpt><trkpt lat="37.579261779785156" lon="127.0246353149414"><ele>5.0</ele><time>2026-07-24T10:19:40Z</time></trkpt><trkpt lat="37.57925033569336" lon="127.024658203125"><ele>5.0</ele><time>2026-07-24T10:19:41Z</time></trkpt><trkpt lat="37.57925796508789" lon="127.02471160888672"><ele>5.0</ele><time>2026-07-24T10:19:42Z</time></trkpt><trkpt lat="37.579261779785156" lon="127.02474212646484"><ele>5.199999809265137</ele><time>2026-07-24T10:19:43Z</time></trkpt><trkpt lat="37.57925796508789" lon="127.0247802734375"><ele>5.400000095367432</ele><time>2026-07-24T10:19:44Z</time></trkpt><trkpt lat="37.57925033569336" lon="127.0248031616211"><ele>5.599999904632568</ele><time>2026-07-24T10:19:45Z</time></trkpt><trkpt lat="37.579246520996094" lon="127.02483367919922"><ele>5.599999904632568</ele><time>2026-07-24T10:19:46Z</time></trkpt><trkpt lat="37.57923889160156" lon="127.02486419677734"><ele>5.599999904632568</ele><time>2026-07-24T10:19:47Z</time></trkpt><trkpt lat="37.5792350769043" lon="127.02488708496094"><ele>5.599999904632568</ele><time>2026-07-24T10:19:48Z</time></trkpt><trkpt lat="37.5792236328125" lon="127.02490997314453"><ele>5.599999904632568</ele><time>2026-07-24T10:19:49Z</time></trkpt><trkpt lat="37.57921600341797" lon="127.02493286132812"><ele>5.599999904632568</ele><time>2026-07-24T10:19:50Z</time></trkpt><trkpt lat="37.5792121887207" lon="127.02496337890625"><ele>5.599999904632568</ele><time>2026-07-24T10:19:51Z</time></trkpt><trkpt lat="37.57920455932617" lon="127.02498626708984"><ele>5.599999904632568</ele><time>2026-07-24T10:19:52Z</time></trkpt><trkpt lat="37.579200744628906" lon="127.02500915527344"><ele>5.599999904632568</ele><time>2026-07-24T10:19:53Z</time></trkpt><trkpt lat="37.579193115234375" lon="127.0250473022461"><ele>5.599999904632568</ele><time>2026-07-24T10:19:54Z</time></trkpt><trkpt lat="37.579185485839844" lon="127.02507019042969"><ele>5.599999904632568</ele><time>2026-07-24T10:19:55Z</time></trkpt><trkpt lat="37.57917785644531" lon="127.02510070800781"><ele>5.599999904632568</ele><time>2026-07-24T10:19:56Z</time></trkpt><trkpt lat="37.579166412353516" lon="127.02513122558594"><ele>5.400000095367432</ele><time>2026-07-24T10:19:57Z</time></trkpt><trkpt lat="37.57916259765625" lon="127.02516174316406"><ele>5.599999904632568</ele><time>2026-07-24T10:19:58Z</time></trkpt><trkpt lat="37.57915496826172" lon="127.02519989013672"><ele>5.599999904632568</ele><time>2026-07-24T10:19:59Z</time></trkpt><trkpt lat="37.57915115356445" lon="127.02522277832031"><ele>5.599999904632568</ele><time>2026-07-24T10:20:00Z</time></trkpt><trkpt lat="37.57914733886719" lon="127.02526092529297"><ele>5.400000095367432</ele><time>2026-07-24T10:20:01Z</time></trkpt><trkpt lat="37.57914733886719" lon="127.02528381347656"><ele>5.400000095367432</ele><time>2026-07-24T10:20:02Z</time></trkpt><trkpt lat="37.57914352416992" lon="127.02530670166016"><ele>5.400000095367432</ele><time>2026-07-24T10:20:03Z</time></trkpt><trkpt lat="37.57913589477539" lon="127.02533721923828"><ele>5.400000095367432</ele><time>2026-07-24T10:20:04Z</time></trkpt><trkpt lat="37.57913589477539" lon="127.02536010742188"><ele>5.400000095367432</ele><time>2026-07-24T10:20:05Z</time></trkpt><trkpt lat="37.57913589477539" lon="127.02539825439453"><ele>5.400000095367432</ele><time>2026-07-24T10:20:06Z</time></trkpt><trkpt lat="37.579132080078125" lon="127.02542114257812"><ele>5.400000095367432</ele><time>2026-07-24T10:20:07Z</time></trkpt><trkpt lat="37.57912826538086" lon="127.02545928955078"><ele>5.400000095367432</ele><time>2026-07-24T10:20:08Z</time></trkpt><trkpt lat="37.57912826538086" lon="127.02549743652344"><ele>5.400000095367432</ele><time>2026-07-24T10:20:09Z</time></trkpt><trkpt lat="37.57912826538086" lon="127.02552795410156"><ele>5.400000095367432</ele><time>2026-07-24T10:20:10Z</time></trkpt><trkpt lat="37.57912826538086" lon="127.02556610107422"><ele>5.400000095367432</ele><time>2026-07-24T10:20:11Z</time></trkpt><trkpt lat="37.57912826538086" lon="127.02559661865234"><ele>5.400000095367432</ele><time>2026-07-24T10:20:12Z</time></trkpt><trkpt lat="37.57912826538086" lon="127.025634765625"><ele>5.199999809265137</ele><time>2026-07-24T10:20:13Z</time></trkpt><trkpt lat="37.57912063598633" lon="127.02567291259766"><ele>5.199999809265137</ele><time>2026-07-24T10:20:14Z</time></trkpt><trkpt lat="37.5791130065918" lon="127.02569580078125"><ele>5.199999809265137</ele><time>2026-07-24T10:20:15Z</time></trkpt><trkpt lat="37.5791015625" lon="127.02572631835938"><ele>5.199999809265137</ele><time>2026-07-24T10:20:16Z</time></trkpt><trkpt lat="37.57909393310547" lon="127.02574920654297"><ele>5.199999809265137</ele><time>2026-07-24T10:20:17Z</time></trkpt><trkpt lat="37.57908630371094" lon="127.0257797241211"><ele>5.199999809265137</ele><time>2026-07-24T10:20:18Z</time></trkpt><trkpt lat="37.579078674316406" lon="127.02581024169922"><ele>5.199999809265137</ele><time>2026-07-24T10:20:19Z</time></trkpt><trkpt lat="37.57906723022461" lon="127.02583312988281"><ele>5.199999809265137</ele><time>2026-07-24T10:20:20Z</time></trkpt><trkpt lat="37.57904815673828" lon="127.0258560180664"><ele>5.199999809265137</ele><time>2026-07-24T10:20:21Z</time></trkpt><trkpt lat="37.57904052734375" lon="127.02587890625"><ele>5.0</ele><time>2026-07-24T10:20:22Z</time></trkpt><trkpt lat="37.57902145385742" lon="127.0259017944336"><ele>5.0</ele><time>2026-07-24T10:20:23Z</time></trkpt><trkpt lat="37.579010009765625" lon="127.02592468261719"><ele>5.199999809265137</ele><time>2026-07-24T10:20:24Z</time></trkpt><trkpt lat="37.579002380371094" lon="127.02594757080078"><ele>5.199999809265137</ele><time>2026-07-24T10:20:25Z</time></trkpt><trkpt lat="37.57898712158203" lon="127.0259780883789"><ele>5.199999809265137</ele><time>2026-07-24T10:20:26Z</time></trkpt><trkpt lat="37.5789794921875" lon="127.0260009765625"><ele>5.0</ele><time>2026-07-24T10:20:27Z</time></trkpt><trkpt lat="37.57896423339844" lon="127.02603149414062"><ele>5.0</ele><time>2026-07-24T10:20:28Z</time></trkpt><trkpt lat="37.578956604003906" lon="127.02605438232422"><ele>5.0</ele><time>2026-07-24T10:20:29Z</time></trkpt><trkpt lat="37.578941345214844" lon="127.02607727050781"><ele>5.0</ele><time>2026-07-24T10:20:30Z</time></trkpt><trkpt lat="37.57892990112305" lon="127.0261001586914"><ele>5.0</ele><time>2026-07-24T10:20:31Z</time></trkpt><trkpt lat="37.57891845703125" lon="127.02613830566406"><ele>5.0</ele><time>2026-07-24T10:20:32Z</time></trkpt><trkpt lat="37.57890701293945" lon="127.02615356445312"><ele>5.199999809265137</ele><time>2026-07-24T10:20:33Z</time></trkpt><trkpt lat="37.578895568847656" lon="127.02618408203125"><ele>5.199999809265137</ele><time>2026-07-24T10:20:34Z</time></trkpt><trkpt lat="37.57888412475586" lon="127.02621459960938"><ele>5.0</ele><time>2026-07-24T10:20:35Z</time></trkpt><trkpt lat="37.57887649536133" lon="127.02623748779297"><ele>5.0</ele><time>2026-07-24T10:20:36Z</time></trkpt><trkpt lat="37.578861236572266" lon="127.0262680053711"><ele>5.0</ele><time>2026-07-24T10:20:37Z</time></trkpt><trkpt lat="37.5788459777832" lon="127.02629089355469"><ele>5.0</ele><time>2026-07-24T10:20:38Z</time></trkpt><trkpt lat="37.57883071899414" lon="127.02630615234375"><ele>5.0</ele><time>2026-07-24T10:20:39Z</time></trkpt><trkpt lat="37.57881546020508" lon="127.02633666992188"><ele>5.0</ele><time>2026-07-24T10:20:40Z</time></trkpt><trkpt lat="37.57880783081055" lon="127.02635192871094"><ele>5.0</ele><time>2026-07-24T10:20:41Z</time></trkpt><trkpt lat="37.57878875732422" lon="127.02638244628906"><ele>5.0</ele><time>2026-07-24T10:20:42Z</time></trkpt><trkpt lat="37.578773498535156" lon="127.02639770507812"><ele>5.0</ele><time>2026-07-24T10:20:43Z</time></trkpt><trkpt lat="37.578758239746094" lon="127.02642059326172"><ele>5.0</ele><time>2026-07-24T10:20:44Z</time></trkpt><trkpt lat="37.578739166259766" lon="127.02645111083984"><ele>5.0</ele><time>2026-07-24T10:20:45Z</time></trkpt><trkpt lat="37.578731536865234" lon="127.02647399902344"><ele>5.0</ele><time>2026-07-24T10:20:46Z</time></trkpt><trkpt lat="37.57871627807617" lon="127.02649688720703"><ele>5.0</ele><time>2026-07-24T10:20:47Z</time></trkpt><trkpt lat="37.578704833984375" lon="127.0265121459961"><ele>5.0</ele><time>2026-07-24T10:20:48Z</time></trkpt><trkpt lat="37.57868957519531" lon="127.02653503417969"><ele>4.800000190734863</ele><time>2026-07-24T10:20:49Z</time></trkpt><trkpt lat="37.57867431640625" lon="127.02655792236328"><ele>4.800000190734863</ele><time>2026-07-24T10:20:50Z</time></trkpt><trkpt lat="37.57866668701172" lon="127.02658081054688"><ele>4.800000190734863</ele><time>2026-07-24T10:20:51Z</time></trkpt><trkpt lat="37.578651428222656" lon="127.02660369873047"><ele>4.800000190734863</ele><time>2026-07-24T10:20:52Z</time></trkpt><trkpt lat="37.57863998413086" lon="127.0266342163086"><ele>4.800000190734863</ele><time>2026-07-24T10:20:53Z</time></trkpt><trkpt lat="37.57863235473633" lon="127.02666473388672"><ele>4.800000190734863</ele><time>2026-07-24T10:20:54Z</time></trkpt><trkpt lat="37.578617095947266" lon="127.02667999267578"><ele>4.800000190734863</ele><time>2026-07-24T10:20:55Z</time></trkpt><trkpt lat="37.578609466552734" lon="127.0267105102539"><ele>4.599999904632568</ele><time>2026-07-24T10:20:56Z</time></trkpt><trkpt lat="37.57859802246094" lon="127.02674865722656"><ele>4.599999904632568</ele><time>2026-07-24T10:20:57Z</time></trkpt><trkpt lat="37.57858657836914" lon="127.02676391601562"><ele>4.599999904632568</ele><time>2026-07-24T10:20:58Z</time></trkpt><trkpt lat="37.57857131958008" lon="127.02678680419922"><ele>4.599999904632568</ele><time>2026-07-24T10:20:59Z</time></trkpt><trkpt lat="37.57855224609375" lon="127.02681732177734"><ele>4.400000095367432</ele><time>2026-07-24T10:21:00Z</time></trkpt><trkpt lat="37.57854080200195" lon="127.02684020996094"><ele>4.400000095367432</ele><time>2026-07-24T10:21:01Z</time></trkpt><trkpt lat="37.578529357910156" lon="127.02686309814453"><ele>4.199999809265137</ele><time>2026-07-24T10:21:02Z</time></trkpt><trkpt lat="37.57851791381836" lon="127.02689361572266"><ele>4.199999809265137</ele><time>2026-07-24T10:21:03Z</time></trkpt><trkpt lat="37.57851028442383" lon="127.02691650390625"><ele>4.199999809265137</ele><time>2026-07-24T10:21:04Z</time></trkpt><trkpt lat="37.57849884033203" lon="127.02693939208984"><ele>4.199999809265137</ele><time>2026-07-24T10:21:05Z</time></trkpt><trkpt lat="37.5784912109375" lon="127.02696228027344"><ele>4.199999809265137</ele><time>2026-07-24T10:21:06Z</time></trkpt><trkpt lat="37.57848358154297" lon="127.02698516845703"><ele>4.199999809265137</ele><time>2026-07-24T10:21:07Z</time></trkpt><trkpt lat="37.57846450805664" lon="127.02700805664062"><ele>4.400000095367432</ele><time>2026-07-24T10:21:08Z</time></trkpt><trkpt lat="37.57844161987305" lon="127.02701568603516"><ele>4.400000095367432</ele><time>2026-07-24T10:21:09Z</time></trkpt><trkpt lat="37.57843017578125" lon="127.02703094482422"><ele>4.400000095367432</ele><time>2026-07-24T10:21:10Z</time></trkpt><trkpt lat="37.57841491699219" lon="127.02704620361328"><ele>4.400000095367432</ele><time>2026-07-24T10:21:11Z</time></trkpt><trkpt lat="37.57839584350586" lon="127.02706146240234"><ele>4.199999809265137</ele><time>2026-07-24T10:21:12Z</time></trkpt><trkpt lat="37.578372955322266" lon="127.0270767211914"><ele>4.400000095367432</ele><time>2026-07-24T10:21:13Z</time></trkpt><trkpt lat="37.57835388183594" lon="127.027099609375"><ele>4.400000095367432</ele><time>2026-07-24T10:21:14Z</time></trkpt><trkpt lat="37.578330993652344" lon="127.02711486816406"><ele>4.400000095367432</ele><time>2026-07-24T10:21:15Z</time></trkpt><trkpt lat="37.578311920166016" lon="127.02713012695312"><ele>4.400000095367432</ele><time>2026-07-24T10:21:16Z</time></trkpt><trkpt lat="37.57829284667969" lon="127.02715301513672"><ele>4.599999904632568</ele><time>2026-07-24T10:21:17Z</time></trkpt><trkpt lat="37.57827377319336" lon="127.02716064453125"><ele>4.400000095367432</ele><time>2026-07-24T10:21:18Z</time></trkpt><trkpt lat="37.578250885009766" lon="127.02717590332031"><ele>4.400000095367432</ele><time>2026-07-24T10:21:19Z</time></trkpt><trkpt lat="37.57823181152344" lon="127.0271987915039"><ele>4.400000095367432</ele><time>2026-07-24T10:21:20Z</time></trkpt><trkpt lat="37.57821273803711" lon="127.02721405029297"><ele>4.400000095367432</ele><time>2026-07-24T10:21:21Z</time></trkpt><trkpt lat="37.57819747924805" lon="127.02722930908203"><ele>4.400000095367432</ele><time>2026-07-24T10:21:22Z</time></trkpt><trkpt lat="37.578182220458984" lon="127.02725219726562"><ele>4.400000095367432</ele><time>2026-07-24T10:21:23Z</time></trkpt><trkpt lat="37.57816696166992" lon="127.02727508544922"><ele>4.400000095367432</ele><time>2026-07-24T10:21:24Z</time></trkpt><trkpt lat="37.57815170288086" lon="127.02729034423828"><ele>4.400000095367432</ele><time>2026-07-24T10:21:25Z</time></trkpt><trkpt lat="37.5781364440918" lon="127.02730560302734"><ele>4.400000095367432</ele><time>2026-07-24T10:21:26Z</time></trkpt><trkpt lat="37.578121185302734" lon="127.02733612060547"><ele>4.199999809265137</ele><time>2026-07-24T10:21:27Z</time></trkpt><trkpt lat="37.57810592651367" lon="127.02735137939453"><ele>4.400000095367432</ele><time>2026-07-24T10:21:28Z</time></trkpt><trkpt lat="37.578086853027344" lon="127.02737426757812"><ele>4.199999809265137</ele><time>2026-07-24T10:21:29Z</time></trkpt><trkpt lat="37.578067779541016" lon="127.02738952636719"><ele>4.199999809265137</ele><time>2026-07-24T10:21:30Z</time></trkpt><trkpt lat="37.57804870605469" lon="127.02741241455078"><ele>4.400000095367432</ele><time>2026-07-24T10:21:31Z</time></trkpt><trkpt lat="37.578025817871094" lon="127.02743530273438"><ele>4.400000095367432</ele><time>2026-07-24T10:21:32Z</time></trkpt><trkpt lat="37.5780143737793" lon="127.02745819091797"><ele>4.400000095367432</ele><time>2026-07-24T10:21:33Z</time></trkpt><trkpt lat="37.57799530029297" lon="127.02747344970703"><ele>4.400000095367432</ele><time>2026-07-24T10:21:34Z</time></trkpt><trkpt lat="37.577972412109375" lon="127.0274887084961"><ele>4.400000095367432</ele><time>2026-07-24T10:21:35Z</time></trkpt><trkpt lat="37.57795715332031" lon="127.02750396728516"><ele>4.199999809265137</ele><time>2026-07-24T10:21:36Z</time></trkpt><trkpt lat="37.57792663574219" lon="127.02751922607422"><ele>4.199999809265137</ele><time>2026-07-24T10:21:37Z</time></trkpt><trkpt lat="37.57790756225586" lon="127.02754211425781"><ele>4.199999809265137</ele><time>2026-07-24T10:21:38Z</time></trkpt><trkpt lat="37.57787322998047" lon="127.02755737304688"><ele>4.199999809265137</ele><time>2026-07-24T10:21:39Z</time></trkpt><trkpt lat="37.57785415649414" lon="127.0275650024414"><ele>4.199999809265137</ele><time>2026-07-24T10:21:40Z</time></trkpt><trkpt lat="37.57782745361328" lon="127.027587890625"><ele>4.0</ele><time>2026-07-24T10:21:41Z</time></trkpt><trkpt lat="37.57780838012695" lon="127.02759552001953"><ele>4.199999809265137</ele><time>2026-07-24T10:21:42Z</time></trkpt><trkpt lat="37.57778549194336" lon="127.02761840820312"><ele>4.199999809265137</ele><time>2026-07-24T10:21:43Z</time></trkpt><trkpt lat="37.577762603759766" lon="127.02764129638672"><ele>4.199999809265137</ele><time>2026-07-24T10:21:44Z</time></trkpt><trkpt lat="37.5777473449707" lon="127.02764892578125"><ele>4.199999809265137</ele><time>2026-07-24T10:21:45Z</time></trkpt><trkpt lat="37.57772445678711" lon="127.02766418457031"><ele>4.199999809265137</ele><time>2026-07-24T10:21:46Z</time></trkpt><trkpt lat="37.577701568603516" lon="127.02767181396484"><ele>4.0</ele><time>2026-07-24T10:21:47Z</time></trkpt><trkpt lat="37.57768630981445" lon="127.0276870727539"><ele>4.0</ele><time>2026-07-24T10:21:48Z</time></trkpt><trkpt lat="37.577659606933594" lon="127.02770233154297"><ele>4.0</ele><time>2026-07-24T10:21:49Z</time></trkpt><trkpt lat="37.57763671875" lon="127.02771759033203"><ele>4.0</ele><time>2026-07-24T10:21:50Z</time></trkpt><trkpt lat="37.57761764526367" lon="127.02772521972656"><ele>4.199999809265137</ele><time>2026-07-24T10:21:51Z</time></trkpt><trkpt lat="37.57759094238281" lon="127.02774047851562"><ele>4.199999809265137</ele><time>2026-07-24T10:21:52Z</time></trkpt><trkpt lat="37.57757568359375" lon="127.02774810791016"><ele>4.0</ele><time>2026-07-24T10:21:53Z</time></trkpt><trkpt lat="37.57754898071289" lon="127.02775573730469"><ele>4.0</ele><time>2026-07-24T10:21:54Z</time></trkpt><trkpt lat="37.5775260925293" lon="127.02776336669922"><ele>3.799999952316284</ele><time>2026-07-24T10:21:55Z</time></trkpt><trkpt lat="37.5775032043457" lon="127.02777099609375"><ele>3.5999999046325684</ele><time>2026-07-24T10:21:56Z</time></trkpt><trkpt lat="37.577476501464844" lon="127.02777862548828"><ele>3.5999999046325684</ele><time>2026-07-24T10:21:57Z</time></trkpt><trkpt lat="37.577457427978516" lon="127.02777862548828"><ele>3.5999999046325684</ele><time>2026-07-24T10:21:58Z</time></trkpt><trkpt lat="37.577430725097656" lon="127.02778625488281"><ele>3.5999999046325684</ele><time>2026-07-24T10:21:59Z</time></trkpt><trkpt lat="37.57740783691406" lon="127.02778625488281"><ele>3.4000000953674316</ele><time>2026-07-24T10:22:00Z</time></trkpt><trkpt lat="37.57738494873047" lon="127.02779388427734"><ele>3.4000000953674316</ele><time>2026-07-24T10:22:01Z</time></trkpt><trkpt lat="37.577362060546875" lon="127.02780151367188"><ele>3.5999999046325684</ele><time>2026-07-24T10:22:02Z</time></trkpt><trkpt lat="37.57734298706055" lon="127.0278091430664"><ele>3.5999999046325684</ele><time>2026-07-24T10:22:03Z</time></trkpt><trkpt lat="37.57731246948242" lon="127.02782440185547"><ele>3.4000000953674316</ele><time>2026-07-24T10:22:04Z</time></trkpt><trkpt lat="37.57728958129883" lon="127.02781677246094"><ele>3.4000000953674316</ele><time>2026-07-24T10:22:05Z</time></trkpt><trkpt lat="37.577266693115234" lon="127.02781677246094"><ele>3.200000047683716</ele><time>2026-07-24T10:22:06Z</time></trkpt><trkpt lat="37.57723617553711" lon="127.02781677246094"><ele>3.0</ele><time>2026-07-24T10:22:07Z</time></trkpt><trkpt lat="37.57722473144531" lon="127.02783966064453"><ele>3.0</ele><time>2026-07-24T10:22:08Z</time></trkpt><trkpt lat="37.577213287353516" lon="127.0278549194336"><ele>3.0</ele><time>2026-07-24T10:22:09Z</time></trkpt><trkpt lat="37.57720947265625" lon="127.02787017822266"><ele>3.0</ele><time>2026-07-24T10:22:10Z</time></trkpt><trkpt lat="37.57801818847656" lon="127.02742767333984"><ele>3.799999952316284</ele><time>2026-07-24T10:24:30Z</time></trkpt><trkpt lat="37.57801055908203" lon="127.02741241455078"><ele>4.0</ele><time>2026-07-24T10:24:31Z</time></trkpt><trkpt lat="37.57801818847656" lon="127.02739715576172"><ele>4.199999809265137</ele><time>2026-07-24T10:24:32Z</time></trkpt><trkpt lat="37.57802963256836" lon="127.02738952636719"><ele>4.199999809265137</ele><time>2026-07-24T10:24:33Z</time></trkpt><trkpt lat="37.578041076660156" lon="127.02737426757812"><ele>4.0</ele><time>2026-07-24T10:24:34Z</time></trkpt><trkpt lat="37.57805633544922" lon="127.02735900878906"><ele>4.0</ele><time>2026-07-24T10:24:35Z</time></trkpt><trkpt lat="37.578067779541016" lon="127.02733612060547"><ele>4.0</ele><time>2026-07-24T10:24:36Z</time></trkpt><trkpt lat="37.57809066772461" lon="127.0273208618164"><ele>4.0</ele><time>2026-07-24T10:24:37Z</time></trkpt><trkpt lat="37.57810974121094" lon="127.02730560302734"><ele>4.0</ele><time>2026-07-24T10:24:38Z</time></trkpt><trkpt lat="37.578125" lon="127.02729034423828"><ele>4.0</ele><time>2026-07-24T10:24:39Z</time></trkpt><trkpt lat="37.57814025878906" lon="127.02727508544922"><ele>4.0</ele><time>2026-07-24T10:24:40Z</time></trkpt><trkpt lat="37.578147888183594" lon="127.02725219726562"><ele>4.0</ele><time>2026-07-24T10:24:41Z</time></trkpt><trkpt lat="37.57815933227539" lon="127.0272445678711"><ele>4.0</ele><time>2026-07-24T10:24:42Z</time></trkpt><trkpt lat="37.578163146972656" lon="127.02722930908203"><ele>4.0</ele><time>2026-07-24T10:24:43Z</time></trkpt><trkpt lat="37.57817077636719" lon="127.0272216796875"><ele>4.0</ele><time>2026-07-24T10:24:44Z</time></trkpt><trkpt lat="37.578182220458984" lon="127.02720642089844"><ele>3.799999952316284</ele><time>2026-07-24T10:24:45Z</time></trkpt><trkpt lat="37.57819747924805" lon="127.02719116210938"><ele>3.799999952316284</ele><time>2026-07-24T10:24:46Z</time></trkpt><trkpt lat="37.57821273803711" lon="127.02718353271484"><ele>3.799999952316284</ele><time>2026-07-24T10:24:47Z</time></trkpt><trkpt lat="37.57823181152344" lon="127.02716064453125"><ele>3.799999952316284</ele><time>2026-07-24T10:24:48Z</time></trkpt><trkpt lat="37.57823944091797" lon="127.02715301513672"><ele>3.799999952316284</ele><time>2026-07-24T10:24:49Z</time></trkpt><trkpt lat="37.5782585144043" lon="127.02713012695312"><ele>3.799999952316284</ele><time>2026-07-24T10:24:50Z</time></trkpt><trkpt lat="37.578269958496094" lon="127.02711486816406"><ele>4.0</ele><time>2026-07-24T10:24:51Z</time></trkpt><trkpt lat="37.578285217285156" lon="127.02710723876953"><ele>4.0</ele><time>2026-07-24T10:24:52Z</time></trkpt><trkpt lat="37.57830047607422" lon="127.02708435058594"><ele>4.0</ele><time>2026-07-24T10:24:53Z</time></trkpt><trkpt lat="37.57830810546875" lon="127.02706146240234"><ele>4.0</ele><time>2026-07-24T10:24:54Z</time></trkpt><trkpt lat="37.57832336425781" lon="127.02703857421875"><ele>4.0</ele><time>2026-07-24T10:24:55Z</time></trkpt><trkpt lat="37.57835006713867" lon="127.02702331542969"><ele>4.0</ele><time>2026-07-24T10:24:56Z</time></trkpt><trkpt lat="37.5783576965332" lon="127.02700805664062"><ele>4.0</ele><time>2026-07-24T10:24:57Z</time></trkpt><trkpt lat="37.57837677001953" lon="127.02698516845703"><ele>4.0</ele><time>2026-07-24T10:24:58Z</time></trkpt><trkpt lat="37.57838821411133" lon="127.0269775390625"><ele>4.0</ele><time>2026-07-24T10:24:59Z</time></trkpt><trkpt lat="37.57839584350586" lon="127.02696228027344"><ele>4.0</ele><time>2026-07-24T10:25:00Z</time></trkpt><trkpt lat="37.57841110229492" lon="127.02694702148438"><ele>3.799999952316284</ele><time>2026-07-24T10:25:01Z</time></trkpt><trkpt lat="37.57842254638672" lon="127.02693176269531"><ele>3.799999952316284</ele><time>2026-07-24T10:25:02Z</time></trkpt><trkpt lat="37.57843780517578" lon="127.02691650390625"><ele>3.799999952316284</ele><time>2026-07-24T10:25:03Z</time></trkpt><trkpt lat="37.57844924926758" lon="127.02689361572266"><ele>3.799999952316284</ele><time>2026-07-24T10:25:04Z</time></trkpt><trkpt lat="37.578460693359375" lon="127.02687072753906"><ele>3.799999952316284</ele><time>2026-07-24T10:25:05Z</time></trkpt><trkpt lat="37.57847213745117" lon="127.02684783935547"><ele>3.799999952316284</ele><time>2026-07-24T10:25:06Z</time></trkpt><trkpt lat="37.578468322753906" lon="127.02682495117188"><ele>3.799999952316284</ele><time>2026-07-24T10:25:07Z</time></trkpt><trkpt lat="37.57848358154297" lon="127.02680206298828"><ele>3.5999999046325684</ele><time>2026-07-24T10:25:08Z</time></trkpt><trkpt lat="37.578514099121094" lon="127.02677154541016"><ele>3.5999999046325684</ele><time>2026-07-24T10:25:09Z</time></trkpt><trkpt lat="37.578529357910156" lon="127.02674865722656"><ele>3.799999952316284</ele><time>2026-07-24T10:25:10Z</time></trkpt><trkpt lat="37.57854461669922" lon="127.02671813964844"><ele>3.799999952316284</ele><time>2026-07-24T10:25:11Z</time></trkpt><trkpt lat="37.57856369018555" lon="127.02669525146484"><ele>3.799999952316284</ele><time>2026-07-24T10:25:12Z</time></trkpt><trkpt lat="37.578575134277344" lon="127.02667236328125"><ele>4.0</ele><time>2026-07-24T10:25:13Z</time></trkpt><trkpt lat="37.578590393066406" lon="127.02664947509766"><ele>4.0</ele><time>2026-07-24T10:25:14Z</time></trkpt><trkpt lat="37.57860565185547" lon="127.02662658691406"><ele>4.0</ele><time>2026-07-24T10:25:15Z</time></trkpt><trkpt lat="37.578617095947266" lon="127.02659606933594"><ele>4.0</ele><time>2026-07-24T10:25:16Z</time></trkpt><trkpt lat="37.57862854003906" lon="127.02657318115234"><ele>4.199999809265137</ele><time>2026-07-24T10:25:17Z</time></trkpt><trkpt lat="37.57863998413086" lon="127.02655029296875"><ele>4.199999809265137</ele><time>2026-07-24T10:25:18Z</time></trkpt><trkpt lat="37.578651428222656" lon="127.02652740478516"><ele>4.199999809265137</ele><time>2026-07-24T10:25:19Z</time></trkpt><trkpt lat="37.57866287231445" lon="127.02650451660156"><ele>4.199999809265137</ele><time>2026-07-24T10:25:20Z</time></trkpt><trkpt lat="37.578670501708984" lon="127.02648162841797"><ele>4.199999809265137</ele><time>2026-07-24T10:25:21Z</time></trkpt><trkpt lat="37.57868957519531" lon="127.02645874023438"><ele>4.199999809265137</ele><time>2026-07-24T10:25:22Z</time></trkpt><trkpt lat="37.57870101928711" lon="127.02643585205078"><ele>4.199999809265137</ele><time>2026-07-24T10:25:23Z</time></trkpt><trkpt lat="37.57871627807617" lon="127.02641296386719"><ele>4.199999809265137</ele><time>2026-07-24T10:25:24Z</time></trkpt><trkpt lat="37.578731536865234" lon="127.02638244628906"><ele>4.199999809265137</ele><time>2026-07-24T10:25:25Z</time></trkpt><trkpt lat="37.578739166259766" lon="127.02635955810547"><ele>4.199999809265137</ele><time>2026-07-24T10:25:26Z</time></trkpt><trkpt lat="37.57875061035156" lon="127.02632904052734"><ele>4.199999809265137</ele><time>2026-07-24T10:25:27Z</time></trkpt><trkpt lat="37.578765869140625" lon="127.02630615234375"><ele>4.0</ele><time>2026-07-24T10:25:28Z</time></trkpt><trkpt lat="37.57877731323242" lon="127.02629089355469"><ele>4.0</ele><time>2026-07-24T10:25:29Z</time></trkpt><trkpt lat="37.578792572021484" lon="127.0262680053711"><ele>4.0</ele><time>2026-07-24T10:25:30Z</time></trkpt><trkpt lat="37.57880783081055" lon="127.02623748779297"><ele>4.0</ele><time>2026-07-24T10:25:31Z</time></trkpt><trkpt lat="37.57881546020508" lon="127.02621459960938"><ele>4.0</ele><time>2026-07-24T10:25:32Z</time></trkpt><trkpt lat="37.578826904296875" lon="127.02619171142578"><ele>4.199999809265137</ele><time>2026-07-24T10:25:33Z</time></trkpt><trkpt lat="37.578834533691406" lon="127.02616119384766"><ele>4.199999809265137</ele><time>2026-07-24T10:25:34Z</time></trkpt><trkpt lat="37.57884216308594" lon="127.02613830566406"><ele>4.199999809265137</ele><time>2026-07-24T10:25:35Z</time></trkpt><trkpt lat="37.578861236572266" lon="127.02610778808594"><ele>4.199999809265137</ele><time>2026-07-24T10:25:36Z</time></trkpt><trkpt lat="37.5788688659668" lon="127.02608489990234"><ele>4.0</ele><time>2026-07-24T10:25:37Z</time></trkpt><trkpt lat="37.57887649536133" lon="127.02606201171875"><ele>4.0</ele><time>2026-07-24T10:25:38Z</time></trkpt><trkpt lat="37.57889175415039" lon="127.02603912353516"><ele>4.0</ele><time>2026-07-24T10:25:39Z</time></trkpt><trkpt lat="37.57889938354492" lon="127.02601623535156"><ele>4.0</ele><time>2026-07-24T10:25:40Z</time></trkpt><trkpt lat="37.57891082763672" lon="127.02598571777344"><ele>4.0</ele><time>2026-07-24T10:25:41Z</time></trkpt><trkpt lat="37.57892608642578" lon="127.02597045898438"><ele>4.0</ele><time>2026-07-24T10:25:42Z</time></trkpt><trkpt lat="37.57893753051758" lon="127.02594757080078"><ele>4.0</ele><time>2026-07-24T10:25:43Z</time></trkpt><trkpt lat="37.578948974609375" lon="127.02592468261719"><ele>4.0</ele><time>2026-07-24T10:25:44Z</time></trkpt><trkpt lat="37.578956604003906" lon="127.0259017944336"><ele>4.199999809265137</ele><time>2026-07-24T10:25:45Z</time></trkpt><trkpt lat="37.57896423339844" lon="127.02587127685547"><ele>4.199999809265137</ele><time>2026-07-24T10:25:46Z</time></trkpt><trkpt lat="37.578975677490234" lon="127.02584838867188"><ele>4.199999809265137</ele><time>2026-07-24T10:25:47Z</time></trkpt><trkpt lat="37.578983306884766" lon="127.02583312988281"><ele>4.199999809265137</ele><time>2026-07-24T10:25:48Z</time></trkpt><trkpt lat="37.579002380371094" lon="127.02580261230469"><ele>4.199999809265137</ele><time>2026-07-24T10:25:49Z</time></trkpt><trkpt lat="37.57900619506836" lon="127.02578735351562"><ele>4.0</ele><time>2026-07-24T10:25:50Z</time></trkpt><trkpt lat="37.57901382446289" lon="127.02576446533203"><ele>4.0</ele><time>2026-07-24T10:25:51Z</time></trkpt><trkpt lat="37.57903289794922" lon="127.0257339477539"><ele>4.199999809265137</ele><time>2026-07-24T10:25:52Z</time></trkpt><trkpt lat="37.579036712646484" lon="127.02571105957031"><ele>4.199999809265137</ele><time>2026-07-24T10:25:53Z</time></trkpt><trkpt lat="37.579044342041016" lon="127.02568054199219"><ele>4.199999809265137</ele><time>2026-07-24T10:25:54Z</time></trkpt><trkpt lat="37.57905197143555" lon="127.0256576538086"><ele>4.199999809265137</ele><time>2026-07-24T10:25:55Z</time></trkpt><trkpt lat="37.57905197143555" lon="127.025634765625"><ele>4.199999809265137</ele><time>2026-07-24T10:25:56Z</time></trkpt><trkpt lat="37.57905960083008" lon="127.02559661865234"><ele>4.199999809265137</ele><time>2026-07-24T10:25:57Z</time></trkpt><trkpt lat="37.57905960083008" lon="127.02558135986328"><ele>4.199999809265137</ele><time>2026-07-24T10:25:58Z</time></trkpt><trkpt lat="37.579063415527344" lon="127.02555084228516"><ele>4.199999809265137</ele><time>2026-07-24T10:25:59Z</time></trkpt><trkpt lat="37.579071044921875" lon="127.02552032470703"><ele>4.199999809265137</ele><time>2026-07-24T10:26:00Z</time></trkpt><trkpt lat="37.57906723022461" lon="127.02549743652344"><ele>4.199999809265137</ele><time>2026-07-24T10:26:01Z</time></trkpt><trkpt lat="37.579071044921875" lon="127.02546691894531"><ele>4.199999809265137</ele><time>2026-07-24T10:26:02Z</time></trkpt><trkpt lat="37.579078674316406" lon="127.02544403076172"><ele>4.199999809265137</ele><time>2026-07-24T10:26:03Z</time></trkpt><trkpt lat="37.57907485961914" lon="127.02542114257812"><ele>4.199999809265137</ele><time>2026-07-24T10:26:04Z</time></trkpt><trkpt lat="37.579078674316406" lon="127.025390625"><ele>4.199999809265137</ele><time>2026-07-24T10:26:05Z</time></trkpt><trkpt lat="37.579078674316406" lon="127.02537536621094"><ele>4.199999809265137</ele><time>2026-07-24T10:26:06Z</time></trkpt><trkpt lat="37.57908248901367" lon="127.02535247802734"><ele>4.199999809265137</ele><time>2026-07-24T10:26:07Z</time></trkpt><trkpt lat="37.579097747802734" lon="127.02532196044922"><ele>4.199999809265137</ele><time>2026-07-24T10:26:08Z</time></trkpt><trkpt lat="37.5791015625" lon="127.02529907226562"><ele>4.199999809265137</ele><time>2026-07-24T10:26:09Z</time></trkpt><trkpt lat="37.579105377197266" lon="127.02527618408203"><ele>4.199999809265137</ele><time>2026-07-24T10:26:10Z</time></trkpt><trkpt lat="37.57912063598633" lon="127.02523803710938"><ele>4.199999809265137</ele><time>2026-07-24T10:26:11Z</time></trkpt><trkpt lat="37.579124450683594" lon="127.02521514892578"><ele>4.199999809265137</ele><time>2026-07-24T10:26:12Z</time></trkpt><trkpt lat="37.57912826538086" lon="127.02518463134766"><ele>4.199999809265137</ele><time>2026-07-24T10:26:13Z</time></trkpt><trkpt lat="37.57913589477539" lon="127.02516174316406"><ele>4.199999809265137</ele><time>2026-07-24T10:26:14Z</time></trkpt><trkpt lat="37.57913589477539" lon="127.02513885498047"><ele>4.199999809265137</ele><time>2026-07-24T10:26:15Z</time></trkpt><trkpt lat="37.579139709472656" lon="127.02510070800781"><ele>4.199999809265137</ele><time>2026-07-24T10:26:16Z</time></trkpt><trkpt lat="37.57914352416992" lon="127.02507781982422"><ele>4.199999809265137</ele><time>2026-07-24T10:26:17Z</time></trkpt><trkpt lat="37.57914352416992" lon="127.02505493164062"><ele>4.199999809265137</ele><time>2026-07-24T10:26:18Z</time></trkpt><trkpt lat="37.57915115356445" lon="127.0250244140625"><ele>4.400000095367432</ele><time>2026-07-24T10:26:19Z</time></trkpt><trkpt lat="37.57916259765625" lon="127.0250015258789"><ele>4.400000095367432</ele><time>2026-07-24T10:26:20Z</time></trkpt><trkpt lat="37.579166412353516" lon="127.02497863769531"><ele>4.400000095367432</ele><time>2026-07-24T10:26:21Z</time></trkpt><trkpt lat="37.57917785644531" lon="127.02494812011719"><ele>4.400000095367432</ele><time>2026-07-24T10:26:22Z</time></trkpt><trkpt lat="37.57917785644531" lon="127.02493286132812"><ele>4.400000095367432</ele><time>2026-07-24T10:26:23Z</time></trkpt><trkpt lat="37.579185485839844" lon="127.02490234375"><ele>4.599999904632568</ele><time>2026-07-24T10:26:24Z</time></trkpt><trkpt lat="37.579193115234375" lon="127.02487182617188"><ele>4.599999904632568</ele><time>2026-07-24T10:26:25Z</time></trkpt><trkpt lat="37.57918930053711" lon="127.02485656738281"><ele>4.400000095367432</ele><time>2026-07-24T10:26:26Z</time></trkpt><trkpt lat="37.57919692993164" lon="127.02482604980469"><ele>4.400000095367432</ele><time>2026-07-24T10:26:27Z</time></trkpt><trkpt lat="37.579200744628906" lon="127.0248031616211"><ele>4.400000095367432</ele><time>2026-07-24T10:26:28Z</time></trkpt><trkpt lat="37.579200744628906" lon="127.0247802734375"><ele>4.400000095367432</ele><time>2026-07-24T10:26:29Z</time></trkpt><trkpt lat="37.57919692993164" lon="127.02474975585938"><ele>4.400000095367432</ele><time>2026-07-24T10:26:30Z</time></trkpt><trkpt lat="37.57920455932617" lon="127.02473449707031"><ele>4.400000095367432</ele><time>2026-07-24T10:26:31Z</time></trkpt><trkpt lat="37.57920455932617" lon="127.02470397949219"><ele>4.199999809265137</ele><time>2026-07-24T10:26:32Z</time></trkpt><trkpt lat="37.5792121887207" lon="127.02467346191406"><ele>4.199999809265137</ele><time>2026-07-24T10:26:33Z</time></trkpt><trkpt lat="37.57921600341797" lon="127.02465057373047"><ele>4.0</ele><time>2026-07-24T10:26:34Z</time></trkpt><trkpt lat="37.579219818115234" lon="127.02462005615234"><ele>4.0</ele><time>2026-07-24T10:26:35Z</time></trkpt><trkpt lat="37.579227447509766" lon="127.02459716796875"><ele>3.799999952316284</ele><time>2026-07-24T10:26:36Z</time></trkpt><trkpt lat="37.5792350769043" lon="127.02456665039062"><ele>3.799999952316284</ele><time>2026-07-24T10:26:37Z</time></trkpt><trkpt lat="37.57924270629883" lon="127.0245361328125"><ele>3.799999952316284</ele><time>2026-07-24T10:26:38Z</time></trkpt><trkpt lat="37.57925033569336" lon="127.0245132446289"><ele>3.799999952316284</ele><time>2026-07-24T10:26:39Z</time></trkpt><trkpt lat="37.579254150390625" lon="127.02449035644531"><ele>3.799999952316284</ele><time>2026-07-24T10:26:40Z</time></trkpt><trkpt lat="37.579254150390625" lon="127.02447509765625"><ele>3.799999952316284</ele><time>2026-07-24T10:26:41Z</time></trkpt><trkpt lat="37.57925796508789" lon="127.02445220947266"><ele>4.0</ele><time>2026-07-24T10:26:42Z</time></trkpt><trkpt lat="37.579261779785156" lon="127.02442932128906"><ele>4.0</ele><time>2026-07-24T10:26:43Z</time></trkpt><trkpt lat="37.57929611206055" lon="127.02439880371094"><ele>4.0</ele><time>2026-07-24T10:26:44Z</time></trkpt><trkpt lat="37.57929611206055" lon="127.02437591552734"><ele>4.0</ele><time>2026-07-24T10:26:45Z</time></trkpt><trkpt lat="37.57931137084961" lon="127.02435302734375"><ele>4.0</ele><time>2026-07-24T10:26:46Z</time></trkpt><trkpt lat="37.579322814941406" lon="127.02433013916016"><ele>4.0</ele><time>2026-07-24T10:26:47Z</time></trkpt><trkpt lat="37.5793342590332" lon="127.02430725097656"><ele>4.199999809265137</ele><time>2026-07-24T10:26:48Z</time></trkpt><trkpt lat="37.57935333251953" lon="127.02428436279297"><ele>4.199999809265137</ele><time>2026-07-24T10:26:49Z</time></trkpt><trkpt lat="37.579368591308594" lon="127.02426147460938"><ele>4.199999809265137</ele><time>2026-07-24T10:26:50Z</time></trkpt><trkpt lat="37.579376220703125" lon="127.02424621582031"><ele>4.400000095367432</ele><time>2026-07-24T10:26:51Z</time></trkpt><trkpt lat="37.57939147949219" lon="127.02422332763672"><ele>4.400000095367432</ele><time>2026-07-24T10:26:52Z</time></trkpt><trkpt lat="37.579402923583984" lon="127.02420043945312"><ele>4.400000095367432</ele><time>2026-07-24T10:26:53Z</time></trkpt><trkpt lat="37.57941818237305" lon="127.02418518066406"><ele>4.400000095367432</ele><time>2026-07-24T10:26:54Z</time></trkpt><trkpt lat="37.579437255859375" lon="127.024169921875"><ele>4.599999904632568</ele><time>2026-07-24T10:26:55Z</time></trkpt><trkpt lat="37.57944869995117" lon="127.02415466308594"><ele>4.599999904632568</ele><time>2026-07-24T10:26:56Z</time></trkpt><trkpt lat="37.57946014404297" lon="127.02413177490234"><ele>4.599999904632568</ele><time>2026-07-24T10:26:57Z</time></trkpt><trkpt lat="37.579471588134766" lon="127.02411651611328"><ele>4.800000190734863</ele><time>2026-07-24T10:26:58Z</time></trkpt><trkpt lat="37.57948684692383" lon="127.02409362792969"><ele>4.800000190734863</ele><time>2026-07-24T10:26:59Z</time></trkpt><trkpt lat="37.57950210571289" lon="127.0240707397461"><ele>4.800000190734863</ele><time>2026-07-24T10:27:00Z</time></trkpt><trkpt lat="37.57951736450195" lon="127.0240478515625"><ele>4.800000190734863</ele><time>2026-07-24T10:27:01Z</time></trkpt><trkpt lat="37.579532623291016" lon="127.02403259277344"><ele>4.800000190734863</ele><time>2026-07-24T10:27:02Z</time></trkpt><trkpt lat="37.57954788208008" lon="127.02400970458984"><ele>4.599999904632568</ele><time>2026-07-24T10:27:03Z</time></trkpt><trkpt lat="37.57956314086914" lon="127.02399444580078"><ele>4.599999904632568</ele><time>2026-07-24T10:27:04Z</time></trkpt><trkpt lat="37.57958221435547" lon="127.02397155761719"><ele>4.599999904632568</ele><time>2026-07-24T10:27:05Z</time></trkpt><trkpt lat="37.5796012878418" lon="127.02395629882812"><ele>4.599999904632568</ele><time>2026-07-24T10:27:06Z</time></trkpt><trkpt lat="37.57961654663086" lon="127.02394104003906"><ele>4.599999904632568</ele><time>2026-07-24T10:27:07Z</time></trkpt><trkpt lat="37.57963562011719" lon="127.02392578125"><ele>4.599999904632568</ele><time>2026-07-24T10:27:08Z</time></trkpt><trkpt lat="37.57965087890625" lon="127.02391052246094"><ele>4.599999904632568</ele><time>2026-07-24T10:27:09Z</time></trkpt><trkpt lat="37.57966995239258" lon="127.0239028930664"><ele>4.599999904632568</ele><time>2026-07-24T10:27:10Z</time></trkpt><trkpt lat="37.57969284057617" lon="127.02388763427734"><ele>4.599999904632568</ele><time>2026-07-24T10:27:11Z</time></trkpt><trkpt lat="37.579708099365234" lon="127.02388000488281"><ele>4.599999904632568</ele><time>2026-07-24T10:27:12Z</time></trkpt><trkpt lat="37.57972717285156" lon="127.02387237548828"><ele>4.599999904632568</ele><time>2026-07-24T10:27:13Z</time></trkpt><trkpt lat="37.57974624633789" lon="127.02385711669922"><ele>4.599999904632568</ele><time>2026-07-24T10:27:14Z</time></trkpt><trkpt lat="37.57976150512695" lon="127.02384185791016"><ele>4.599999904632568</ele><time>2026-07-24T10:27:15Z</time></trkpt><trkpt lat="37.57978439331055" lon="127.02383422851562"><ele>4.599999904632568</ele><time>2026-07-24T10:27:16Z</time></trkpt><trkpt lat="37.579803466796875" lon="127.02381896972656"><ele>4.599999904632568</ele><time>2026-07-24T10:27:17Z</time></trkpt><trkpt lat="37.5798225402832" lon="127.02381134033203"><ele>4.599999904632568</ele><time>2026-07-24T10:27:18Z</time></trkpt><trkpt lat="37.5798454284668" lon="127.02379608154297"><ele>4.599999904632568</ele><time>2026-07-24T10:27:19Z</time></trkpt><trkpt lat="37.579856872558594" lon="127.0237808227539"><ele>4.599999904632568</ele><time>2026-07-24T10:27:20Z</time></trkpt><trkpt lat="37.57987976074219" lon="127.02377319335938"><ele>4.599999904632568</ele><time>2026-07-24T10:27:21Z</time></trkpt><trkpt lat="37.57990264892578" lon="127.02375793457031"><ele>4.599999904632568</ele><time>2026-07-24T10:27:22Z</time></trkpt><trkpt lat="37.579925537109375" lon="127.02375030517578"><ele>4.599999904632568</ele><time>2026-07-24T10:27:23Z</time></trkpt><trkpt lat="37.5799446105957" lon="127.02373504638672"><ele>4.599999904632568</ele><time>2026-07-24T10:27:24Z</time></trkpt><trkpt lat="37.57996368408203" lon="127.02372741699219"><ele>4.599999904632568</ele><time>2026-07-24T10:27:25Z</time></trkpt><trkpt lat="37.579978942871094" lon="127.02371978759766"><ele>4.599999904632568</ele><time>2026-07-24T10:27:26Z</time></trkpt><trkpt lat="37.58000183105469" lon="127.0237045288086"><ele>4.400000095367432</ele><time>2026-07-24T10:27:27Z</time></trkpt><trkpt lat="37.580020904541016" lon="127.0237045288086"><ele>4.599999904632568</ele><time>2026-07-24T10:27:28Z</time></trkpt><trkpt lat="37.580039978027344" lon="127.02368927001953"><ele>4.599999904632568</ele><time>2026-07-24T10:27:29Z</time></trkpt><trkpt lat="37.58006286621094" lon="127.023681640625"><ele>4.800000190734863</ele><time>2026-07-24T10:27:30Z</time></trkpt><trkpt lat="37.580081939697266" lon="127.02367401123047"><ele>4.800000190734863</ele><time>2026-07-24T10:27:31Z</time></trkpt><trkpt lat="37.580101013183594" lon="127.0236587524414"><ele>4.800000190734863</ele><time>2026-07-24T10:27:32Z</time></trkpt><trkpt lat="37.58012771606445" lon="127.02365112304688"><ele>4.800000190734863</ele><time>2026-07-24T10:27:33Z</time></trkpt><trkpt lat="37.58014678955078" lon="127.02364349365234"><ele>4.800000190734863</ele><time>2026-07-24T10:27:34Z</time></trkpt><trkpt lat="37.58016586303711" lon="127.02363586425781"><ele>4.599999904632568</ele><time>2026-07-24T10:27:35Z</time></trkpt><trkpt lat="37.58018493652344" lon="127.02362823486328"><ele>4.599999904632568</ele><time>2026-07-24T10:27:36Z</time></trkpt><trkpt lat="37.5802001953125" lon="127.02361297607422"><ele>4.800000190734863</ele><time>2026-07-24T10:27:37Z</time></trkpt><trkpt lat="37.580223083496094" lon="127.02360534667969"><ele>4.800000190734863</ele><time>2026-07-24T10:27:38Z</time></trkpt><trkpt lat="37.58024597167969" lon="127.02359771728516"><ele>4.800000190734863</ele><time>2026-07-24T10:27:39Z</time></trkpt><trkpt lat="37.580265045166016" lon="127.0235824584961"><ele>4.800000190734863</ele><time>2026-07-24T10:27:40Z</time></trkpt><trkpt lat="37.58028793334961" lon="127.02357482910156"><ele>4.800000190734863</ele><time>2026-07-24T10:27:41Z</time></trkpt><trkpt lat="37.58030700683594" lon="127.0235595703125"><ele>4.800000190734863</ele><time>2026-07-24T10:27:42Z</time></trkpt><trkpt lat="37.580326080322266" lon="127.02354431152344"><ele>4.599999904632568</ele><time>2026-07-24T10:27:43Z</time></trkpt><trkpt lat="37.580345153808594" lon="127.0235366821289"><ele>4.599999904632568</ele><time>2026-07-24T10:27:44Z</time></trkpt><trkpt lat="37.58035659790039" lon="127.02352905273438"><ele>4.599999904632568</ele><time>2026-07-24T10:27:45Z</time></trkpt><trkpt lat="37.580379486083984" lon="127.02351379394531"><ele>4.800000190734863</ele><time>2026-07-24T10:27:46Z</time></trkpt><trkpt lat="37.58039474487305" lon="127.02350616455078"><ele>4.800000190734863</ele><time>2026-07-24T10:27:47Z</time></trkpt><trkpt lat="37.580406188964844" lon="127.02349090576172"><ele>4.800000190734863</ele><time>2026-07-24T10:27:48Z</time></trkpt><trkpt lat="37.58042907714844" lon="127.02348327636719"><ele>4.800000190734863</ele><time>2026-07-24T10:27:49Z</time></trkpt><trkpt lat="37.5804443359375" lon="127.02347564697266"><ele>4.800000190734863</ele><time>2026-07-24T10:27:50Z</time></trkpt><trkpt lat="37.58046340942383" lon="127.02346801757812"><ele>4.800000190734863</ele><time>2026-07-24T10:27:51Z</time></trkpt><trkpt lat="37.58048629760742" lon="127.0234603881836"><ele>4.800000190734863</ele><time>2026-07-24T10:27:52Z</time></trkpt><trkpt lat="37.58050537109375" lon="127.02344512939453"><ele>4.800000190734863</ele><time>2026-07-24T10:27:53Z</time></trkpt><trkpt lat="37.580528259277344" lon="127.02342987060547"><ele>4.800000190734863</ele><time>2026-07-24T10:27:54Z</time></trkpt><trkpt lat="37.58054733276367" lon="127.0234146118164"><ele>4.800000190734863</ele><time>2026-07-24T10:27:55Z</time></trkpt><trkpt lat="37.58056640625" lon="127.02340698242188"><ele>4.599999904632568</ele><time>2026-07-24T10:27:56Z</time></trkpt><trkpt lat="37.58058547973633" lon="127.02339172363281"><ele>4.599999904632568</ele><time>2026-07-24T10:27:57Z</time></trkpt><trkpt lat="37.58060073852539" lon="127.02338409423828"><ele>4.599999904632568</ele><time>2026-07-24T10:27:58Z</time></trkpt><trkpt lat="37.580623626708984" lon="127.02336883544922"><ele>4.400000095367432</ele><time>2026-07-24T10:27:59Z</time></trkpt><trkpt lat="37.58063888549805" lon="127.02336120605469"><ele>4.400000095367432</ele><time>2026-07-24T10:28:00Z</time></trkpt><trkpt lat="37.580657958984375" lon="127.02334594726562"><ele>4.400000095367432</ele><time>2026-07-24T10:28:01Z</time></trkpt><trkpt lat="37.580692291259766" lon="127.0233383178711"><ele>4.400000095367432</ele><time>2026-07-24T10:28:02Z</time></trkpt><trkpt lat="37.58070755004883" lon="127.02332305908203"><ele>4.400000095367432</ele><time>2026-07-24T10:28:03Z</time></trkpt><trkpt lat="37.580726623535156" lon="127.0233154296875"><ele>4.599999904632568</ele><time>2026-07-24T10:28:04Z</time></trkpt><trkpt lat="37.58074951171875" lon="127.02330017089844"><ele>4.599999904632568</ele><time>2026-07-24T10:28:05Z</time></trkpt><trkpt lat="37.58076477050781" lon="127.02328491210938"><ele>4.800000190734863</ele><time>2026-07-24T10:28:06Z</time></trkpt><trkpt lat="37.580787658691406" lon="127.02327728271484"><ele>4.800000190734863</ele><time>2026-07-24T10:28:07Z</time></trkpt><trkpt lat="37.580806732177734" lon="127.02326965332031"><ele>4.800000190734863</ele><time>2026-07-24T10:28:08Z</time></trkpt><trkpt lat="37.58082580566406" lon="127.02325439453125"><ele>5.0</ele><time>2026-07-24T10:28:09Z</time></trkpt><trkpt lat="37.580848693847656" lon="127.02323913574219"><ele>5.0</ele><time>2026-07-24T10:28:10Z</time></trkpt><trkpt lat="37.58086395263672" lon="127.02322387695312"><ele>5.0</ele><time>2026-07-24T10:28:11Z</time></trkpt><trkpt lat="37.58088684082031" lon="127.02320861816406"><ele>5.0</ele><time>2026-07-24T10:28:12Z</time></trkpt><trkpt lat="37.58090591430664" lon="127.02320098876953"><ele>5.0</ele><time>2026-07-24T10:28:13Z</time></trkpt><trkpt lat="37.580928802490234" lon="127.02318572998047"><ele>5.0</ele><time>2026-07-24T10:28:14Z</time></trkpt><trkpt lat="37.58095932006836" lon="127.02318572998047"><ele>5.0</ele><time>2026-07-24T10:28:15Z</time></trkpt><trkpt lat="37.58097839355469" lon="127.0231704711914"><ele>5.0</ele><time>2026-07-24T10:28:16Z</time></trkpt><trkpt lat="37.58100128173828" lon="127.02315521240234"><ele>5.0</ele><time>2026-07-24T10:28:17Z</time></trkpt><trkpt lat="37.581024169921875" lon="127.02315521240234"><ele>5.0</ele><time>2026-07-24T10:28:18Z</time></trkpt><trkpt lat="37.58103942871094" lon="127.02313995361328"><ele>5.0</ele><time>2026-07-24T10:28:19Z</time></trkpt><trkpt lat="37.58106231689453" lon="127.02313995361328"><ele>5.0</ele><time>2026-07-24T10:28:20Z</time></trkpt><trkpt lat="37.581077575683594" lon="127.02313995361328"><ele>5.199999809265137</ele><time>2026-07-24T10:28:21Z</time></trkpt><trkpt lat="37.58111572265625" lon="127.02312469482422"><ele>5.199999809265137</ele><time>2026-07-24T10:28:31Z</time></trkpt><trkpt lat="37.58112335205078" lon="127.02311706542969"><ele>5.199999809265137</ele><time>2026-07-24T10:28:32Z</time></trkpt><trkpt lat="37.581138610839844" lon="127.02310943603516"><ele>5.199999809265137</ele><time>2026-07-24T10:28:33Z</time></trkpt><trkpt lat="37.58115768432617" lon="127.0230941772461"><ele>5.199999809265137</ele><time>2026-07-24T10:28:34Z</time></trkpt><trkpt lat="37.5811767578125" lon="127.02307891845703"><ele>5.199999809265137</ele><time>2026-07-24T10:28:35Z</time></trkpt><trkpt lat="37.58119201660156" lon="127.0230712890625"><ele>5.199999809265137</ele><time>2026-07-24T10:28:36Z</time></trkpt><trkpt lat="37.581214904785156" lon="127.02305603027344"><ele>5.199999809265137</ele><time>2026-07-24T10:28:37Z</time></trkpt><trkpt lat="37.58123779296875" lon="127.02304077148438"><ele>5.199999809265137</ele><time>2026-07-24T10:28:38Z</time></trkpt><trkpt lat="37.58125686645508" lon="127.02302551269531"><ele>5.199999809265137</ele><time>2026-07-24T10:28:39Z</time></trkpt><trkpt lat="37.58127212524414" lon="127.02301788330078"><ele>5.0</ele><time>2026-07-24T10:28:40Z</time></trkpt><trkpt lat="37.581295013427734" lon="127.02300262451172"><ele>5.0</ele><time>2026-07-24T10:28:41Z</time></trkpt><trkpt lat="37.58131408691406" lon="127.02299499511719"><ele>5.0</ele><time>2026-07-24T10:28:42Z</time></trkpt><trkpt lat="37.58133316040039" lon="127.02298736572266"><ele>5.0</ele><time>2026-07-24T10:28:43Z</time></trkpt><trkpt lat="37.58135986328125" lon="127.02297973632812"><ele>5.0</ele><time>2026-07-24T10:28:44Z</time></trkpt><trkpt lat="37.58137512207031" lon="127.02296447753906"><ele>5.0</ele><time>2026-07-24T10:28:45Z</time></trkpt><trkpt lat="37.58140182495117" lon="127.02294921875"><ele>5.0</ele><time>2026-07-24T10:28:46Z</time></trkpt><trkpt lat="37.5814208984375" lon="127.02294158935547"><ele>5.0</ele><time>2026-07-24T10:28:47Z</time></trkpt><trkpt lat="37.58143615722656" lon="127.0229263305664"><ele>5.0</ele><time>2026-07-24T10:28:48Z</time></trkpt><trkpt lat="37.58145523071289" lon="127.02291107177734"><ele>5.0</ele><time>2026-07-24T10:28:49Z</time></trkpt><trkpt lat="37.58147430419922" lon="127.02290344238281"><ele>5.199999809265137</ele><time>2026-07-24T10:28:50Z</time></trkpt><trkpt lat="37.58149337768555" lon="127.02288818359375"><ele>5.199999809265137</ele><time>2026-07-24T10:28:51Z</time></trkpt><trkpt lat="37.58151626586914" lon="127.02288055419922"><ele>5.199999809265137</ele><time>2026-07-24T10:28:52Z</time></trkpt><trkpt lat="37.5815315246582" lon="127.02286529541016"><ele>5.199999809265137</ele><time>2026-07-24T10:28:53Z</time></trkpt><trkpt lat="37.58155822753906" lon="127.0228500366211"><ele>5.199999809265137</ele><time>2026-07-24T10:28:54Z</time></trkpt><trkpt lat="37.58157730102539" lon="127.02284240722656"><ele>5.199999809265137</ele><time>2026-07-24T10:28:55Z</time></trkpt><trkpt lat="37.58159637451172" lon="127.02283477783203"><ele>5.199999809265137</ele><time>2026-07-24T10:28:56Z</time></trkpt><trkpt lat="37.58161926269531" lon="127.02283477783203"><ele>5.400000095367432</ele><time>2026-07-24T10:28:57Z</time></trkpt><trkpt lat="37.58163833618164" lon="127.0228271484375"><ele>5.400000095367432</ele><time>2026-07-24T10:28:58Z</time></trkpt><trkpt lat="37.581661224365234" lon="127.02281951904297"><ele>5.400000095367432</ele><time>2026-07-24T10:28:59Z</time></trkpt><trkpt lat="37.5816764831543" lon="127.02281188964844"><ele>5.400000095367432</ele><time>2026-07-24T10:29:00Z</time></trkpt><trkpt lat="37.58169174194336" lon="127.0228042602539"><ele>5.400000095367432</ele><time>2026-07-24T10:29:01Z</time></trkpt><trkpt lat="37.58171463012695" lon="127.02279663085938"><ele>5.400000095367432</ele><time>2026-07-24T10:29:02Z</time></trkpt><trkpt lat="37.581729888916016" lon="127.02278137207031"><ele>5.400000095367432</ele><time>2026-07-24T10:29:03Z</time></trkpt><trkpt lat="37.58176040649414" lon="127.02276611328125"><ele>5.400000095367432</ele><time>2026-07-24T10:29:04Z</time></trkpt><trkpt lat="37.5817756652832" lon="127.02275848388672"><ele>5.400000095367432</ele><time>2026-07-24T10:29:05Z</time></trkpt><trkpt lat="37.5817985534668" lon="127.02274322509766"><ele>5.400000095367432</ele><time>2026-07-24T10:29:06Z</time></trkpt><trkpt lat="37.581825256347656" lon="127.0227279663086"><ele>5.400000095367432</ele><time>2026-07-24T10:29:07Z</time></trkpt><trkpt lat="37.58184051513672" lon="127.02272033691406"><ele>5.400000095367432</ele><time>2026-07-24T10:29:08Z</time></trkpt><trkpt lat="37.58186721801758" lon="127.022705078125"><ele>5.400000095367432</ele><time>2026-07-24T10:29:09Z</time></trkpt><trkpt lat="37.58189010620117" lon="127.02269744873047"><ele>5.400000095367432</ele><time>2026-07-24T10:29:10Z</time></trkpt><trkpt lat="37.5819091796875" lon="127.0226821899414"><ele>5.400000095367432</ele><time>2026-07-24T10:29:11Z</time></trkpt><trkpt lat="37.581939697265625" lon="127.02266693115234"><ele>5.400000095367432</ele><time>2026-07-24T10:29:12Z</time></trkpt><trkpt lat="37.58195877075195" lon="127.02265167236328"><ele>5.400000095367432</ele><time>2026-07-24T10:29:13Z</time></trkpt><trkpt lat="37.58198165893555" lon="127.02263641357422"><ele>5.400000095367432</ele><time>2026-07-24T10:29:14Z</time></trkpt><trkpt lat="37.58200454711914" lon="127.02262878417969"><ele>5.400000095367432</ele><time>2026-07-24T10:29:15Z</time></trkpt><trkpt lat="37.58201599121094" lon="127.02261352539062"><ele>5.199999809265137</ele><time>2026-07-24T10:29:16Z</time></trkpt><trkpt lat="37.58203887939453" lon="127.02259826660156"><ele>5.199999809265137</ele><time>2026-07-24T10:29:17Z</time></trkpt><trkpt lat="37.582061767578125" lon="127.0225830078125"><ele>5.400000095367432</ele><time>2026-07-24T10:29:18Z</time></trkpt><trkpt lat="37.58207702636719" lon="127.02256774902344"><ele>5.400000095367432</ele><time>2026-07-24T10:29:19Z</time></trkpt><trkpt lat="37.58210754394531" lon="127.02255249023438"><ele>5.400000095367432</ele><time>2026-07-24T10:29:20Z</time></trkpt><trkpt lat="37.582122802734375" lon="127.02254486083984"><ele>5.400000095367432</ele><time>2026-07-24T10:29:21Z</time></trkpt><trkpt lat="37.5821418762207" lon="127.02252960205078"><ele>5.400000095367432</ele><time>2026-07-24T10:29:22Z</time></trkpt><trkpt lat="37.58216857910156" lon="127.02251434326172"><ele>5.400000095367432</ele><time>2026-07-24T10:29:23Z</time></trkpt><trkpt lat="37.58218765258789" lon="127.02250671386719"><ele>5.400000095367432</ele><time>2026-07-24T10:29:24Z</time></trkpt><trkpt lat="37.58221435546875" lon="127.02249145507812"><ele>5.400000095367432</ele><time>2026-07-24T10:29:25Z</time></trkpt><trkpt lat="37.58222961425781" lon="127.0224838256836"><ele>5.199999809265137</ele><time>2026-07-24T10:29:26Z</time></trkpt><trkpt lat="37.58224868774414" lon="127.02247619628906"><ele>5.199999809265137</ele><time>2026-07-24T10:29:27Z</time></trkpt><trkpt lat="37.58226776123047" lon="127.0224609375"><ele>5.0</ele><time>2026-07-24T10:29:28Z</time></trkpt><trkpt lat="37.5822868347168" lon="127.02245330810547"><ele>5.0</ele><time>2026-07-24T10:29:29Z</time></trkpt><trkpt lat="37.58230209350586" lon="127.02244567871094"><ele>4.800000190734863</ele><time>2026-07-24T10:29:30Z</time></trkpt><trkpt lat="37.58231735229492" lon="127.02243041992188"><ele>4.800000190734863</ele><time>2026-07-24T10:29:31Z</time></trkpt><trkpt lat="37.582340240478516" lon="127.02242279052734"><ele>4.800000190734863</ele><time>2026-07-24T10:29:32Z</time></trkpt><trkpt lat="37.58237075805664" lon="127.02241516113281"><ele>5.0</ele><time>2026-07-24T10:29:33Z</time></trkpt><trkpt lat="37.5823974609375" lon="127.02241516113281"><ele>5.199999809265137</ele><time>2026-07-24T10:29:34Z</time></trkpt><trkpt lat="37.582420349121094" lon="127.02240753173828"><ele>5.400000095367432</ele><time>2026-07-24T10:29:35Z</time></trkpt><trkpt lat="37.58245086669922" lon="127.02239990234375"><ele>5.800000190734863</ele><time>2026-07-24T10:29:36Z</time></trkpt><trkpt lat="37.58246994018555" lon="127.02239227294922"><ele>5.800000190734863</ele><time>2026-07-24T10:29:37Z</time></trkpt><trkpt lat="37.582489013671875" lon="127.02237701416016"><ele>6.0</ele><time>2026-07-24T10:29:38Z</time></trkpt><trkpt lat="37.5825080871582" lon="127.0223617553711"><ele>6.199999809265137</ele><time>2026-07-24T10:29:39Z</time></trkpt><trkpt lat="37.582523345947266" lon="127.02234649658203"><ele>6.199999809265137</ele><time>2026-07-24T10:29:40Z</time></trkpt><trkpt lat="37.58254623413086" lon="127.02233123779297"><ele>6.0</ele><time>2026-07-24T10:29:41Z</time></trkpt><trkpt lat="37.58256912231445" lon="127.02232360839844"><ele>6.0</ele><time>2026-07-24T10:29:42Z</time></trkpt><trkpt lat="37.582584381103516" lon="127.02230834960938"><ele>6.0</ele><time>2026-07-24T10:29:43Z</time></trkpt><trkpt lat="37.58260726928711" lon="127.02229309082031"><ele>6.0</ele><time>2026-07-24T10:29:44Z</time></trkpt><trkpt lat="37.58262634277344" lon="127.02228546142578"><ele>6.0</ele><time>2026-07-24T10:29:45Z</time></trkpt><trkpt lat="37.582645416259766" lon="127.02227783203125"><ele>6.0</ele><time>2026-07-24T10:29:46Z</time></trkpt><trkpt lat="37.58267593383789" lon="127.02226257324219"><ele>6.0</ele><time>2026-07-24T10:29:47Z</time></trkpt><trkpt lat="37.58268356323242" lon="127.02224731445312"><ele>6.199999809265137</ele><time>2026-07-24T10:29:48Z</time></trkpt><trkpt lat="37.582706451416016" lon="127.02223205566406"><ele>6.199999809265137</ele><time>2026-07-24T10:29:49Z</time></trkpt><trkpt lat="37.58272933959961" lon="127.02222442626953"><ele>6.199999809265137</ele><time>2026-07-24T10:29:50Z</time></trkpt><trkpt lat="37.58274459838867" lon="127.02220153808594"><ele>6.199999809265137</ele><time>2026-07-24T10:29:51Z</time></trkpt><trkpt lat="37.582767486572266" lon="127.0221939086914"><ele>6.199999809265137</ele><time>2026-07-24T10:29:52Z</time></trkpt><trkpt lat="37.582786560058594" lon="127.02218627929688"><ele>6.0</ele><time>2026-07-24T10:29:53Z</time></trkpt><trkpt lat="37.582801818847656" lon="127.02217102050781"><ele>6.0</ele><time>2026-07-24T10:29:54Z</time></trkpt><trkpt lat="37.582828521728516" lon="127.02216339111328"><ele>6.0</ele><time>2026-07-24T10:29:55Z</time></trkpt><trkpt lat="37.58283996582031" lon="127.02215576171875"><ele>6.199999809265137</ele><time>2026-07-24T10:29:56Z</time></trkpt><trkpt lat="37.582862854003906" lon="127.02214050292969"><ele>6.199999809265137</ele><time>2026-07-24T10:29:57Z</time></trkpt><trkpt lat="37.5828857421875" lon="127.02213287353516"><ele>6.199999809265137</ele><time>2026-07-24T10:29:58Z</time></trkpt><trkpt lat="37.58290481567383" lon="127.0221176147461"><ele>6.199999809265137</ele><time>2026-07-24T10:29:59Z</time></trkpt><trkpt lat="37.58293151855469" lon="127.02210998535156"><ele>6.199999809265137</ele><time>2026-07-24T10:30:00Z</time></trkpt><trkpt lat="37.582950592041016" lon="127.02210235595703"><ele>6.199999809265137</ele><time>2026-07-24T10:30:01Z</time></trkpt><trkpt lat="37.582969665527344" lon="127.0220947265625"><ele>6.199999809265137</ele><time>2026-07-24T10:30:02Z</time></trkpt><trkpt lat="37.58300018310547" lon="127.02208709716797"><ele>6.0</ele><time>2026-07-24T10:30:03Z</time></trkpt><trkpt lat="37.5830192565918" lon="127.0220718383789"><ele>6.199999809265137</ele><time>2026-07-24T10:30:04Z</time></trkpt><trkpt lat="37.58304214477539" lon="127.02206420898438"><ele>6.199999809265137</ele><time>2026-07-24T10:30:05Z</time></trkpt><trkpt lat="37.583065032958984" lon="127.02205657958984"><ele>6.199999809265137</ele><time>2026-07-24T10:30:06Z</time></trkpt><trkpt lat="37.58308410644531" lon="127.02204132080078"><ele>6.199999809265137</ele><time>2026-07-24T10:30:07Z</time></trkpt><trkpt lat="37.58311080932617" lon="127.02203369140625"><ele>6.199999809265137</ele><time>2026-07-24T10:30:08Z</time></trkpt><trkpt lat="37.5831298828125" lon="127.02202606201172"><ele>6.0</ele><time>2026-07-24T10:30:09Z</time></trkpt><trkpt lat="37.58314514160156" lon="127.02201843261719"><ele>6.0</ele><time>2026-07-24T10:30:10Z</time></trkpt><trkpt lat="37.58317565917969" lon="127.02201843261719"><ele>6.0</ele><time>2026-07-24T10:30:11Z</time></trkpt><trkpt lat="37.583194732666016" lon="127.02201080322266"><ele>6.199999809265137</ele><time>2026-07-24T10:30:12Z</time></trkpt><trkpt lat="37.583213806152344" lon="127.02201080322266"><ele>6.199999809265137</ele><time>2026-07-24T10:30:13Z</time></trkpt><trkpt lat="37.5832405090332" lon="127.02200317382812"><ele>6.0</ele><time>2026-07-24T10:30:14Z</time></trkpt><trkpt lat="37.583255767822266" lon="127.0219955444336"><ele>6.0</ele><time>2026-07-24T10:30:15Z</time></trkpt><trkpt lat="37.583282470703125" lon="127.02198791503906"><ele>6.0</ele><time>2026-07-24T10:30:16Z</time></trkpt><trkpt lat="37.58330154418945" lon="127.02197265625"><ele>6.199999809265137</ele><time>2026-07-24T10:30:17Z</time></trkpt><trkpt lat="37.58332061767578" lon="127.02196502685547"><ele>6.199999809265137</ele><time>2026-07-24T10:30:18Z</time></trkpt><trkpt lat="37.58334732055664" lon="127.02195739746094"><ele>6.199999809265137</ele><time>2026-07-24T10:30:19Z</time></trkpt><trkpt lat="37.58336639404297" lon="127.02194213867188"><ele>6.199999809265137</ele><time>2026-07-24T10:30:20Z</time></trkpt><trkpt lat="37.583396911621094" lon="127.02193450927734"><ele>6.0</ele><time>2026-07-24T10:30:21Z</time></trkpt><trkpt lat="37.58341979980469" lon="127.02192687988281"><ele>6.0</ele><time>2026-07-24T10:30:22Z</time></trkpt><trkpt lat="37.58343505859375" lon="127.02191162109375"><ele>6.0</ele><time>2026-07-24T10:30:23Z</time></trkpt><trkpt lat="37.58346176147461" lon="127.02190399169922"><ele>6.0</ele><time>2026-07-24T10:30:24Z</time></trkpt><trkpt lat="37.58347702026367" lon="127.02189636230469"><ele>6.199999809265137</ele><time>2026-07-24T10:30:25Z</time></trkpt><trkpt lat="37.583492279052734" lon="127.02188110351562"><ele>6.199999809265137</ele><time>2026-07-24T10:30:26Z</time></trkpt><trkpt lat="37.58352279663086" lon="127.02186584472656"><ele>6.199999809265137</ele><time>2026-07-24T10:30:27Z</time></trkpt><trkpt lat="37.58353805541992" lon="127.02185821533203"><ele>6.199999809265137</ele><time>2026-07-24T10:30:28Z</time></trkpt><trkpt lat="37.583560943603516" lon="127.0218505859375"><ele>6.199999809265137</ele><time>2026-07-24T10:30:29Z</time></trkpt><trkpt lat="37.583587646484375" lon="127.0218505859375"><ele>6.199999809265137</ele><time>2026-07-24T10:30:30Z</time></trkpt><trkpt lat="37.58360290527344" lon="127.02183532714844"><ele>6.199999809265137</ele><time>2026-07-24T10:30:31Z</time></trkpt><trkpt lat="37.58363342285156" lon="127.0218276977539"><ele>6.0</ele><time>2026-07-24T10:30:32Z</time></trkpt><trkpt lat="37.583648681640625" lon="127.02181243896484"><ele>6.0</ele><time>2026-07-24T10:30:33Z</time></trkpt><trkpt lat="37.58366775512695" lon="127.02179718017578"><ele>6.0</ele><time>2026-07-24T10:30:34Z</time></trkpt><trkpt lat="37.58369445800781" lon="127.02178955078125"><ele>6.0</ele><time>2026-07-24T10:30:35Z</time></trkpt><trkpt lat="37.583709716796875" lon="127.02178192138672"><ele>6.0</ele><time>2026-07-24T10:30:36Z</time></trkpt><trkpt lat="37.5837287902832" lon="127.02178192138672"><ele>6.0</ele><time>2026-07-24T10:30:37Z</time></trkpt><trkpt lat="37.5837516784668" lon="127.02177429199219"><ele>6.0</ele><time>2026-07-24T10:30:38Z</time></trkpt><trkpt lat="37.58376693725586" lon="127.02175903320312"><ele>6.0</ele><time>2026-07-24T10:30:39Z</time></trkpt><trkpt lat="37.583797454833984" lon="127.0217514038086"><ele>6.0</ele><time>2026-07-24T10:30:40Z</time></trkpt><trkpt lat="37.58381271362305" lon="127.0217514038086"><ele>6.0</ele><time>2026-07-24T10:30:41Z</time></trkpt><trkpt lat="37.583831787109375" lon="127.0217514038086"><ele>6.0</ele><time>2026-07-24T10:30:42Z</time></trkpt><trkpt lat="37.58385467529297" lon="127.02175903320312"><ele>5.800000190734863</ele><time>2026-07-24T10:30:43Z</time></trkpt><trkpt lat="37.58387756347656" lon="127.02175903320312"><ele>5.800000190734863</ele><time>2026-07-24T10:30:44Z</time></trkpt><trkpt lat="37.58389663696289" lon="127.02176666259766"><ele>5.800000190734863</ele><time>2026-07-24T10:30:45Z</time></trkpt><trkpt lat="37.58391571044922" lon="127.02178192138672"><ele>5.599999904632568</ele><time>2026-07-24T10:30:46Z</time></trkpt><trkpt lat="37.583919525146484" lon="127.02174377441406"><ele>5.599999904632568</ele><time>2026-07-24T10:30:47Z</time></trkpt><trkpt lat="37.583953857421875" lon="127.02171325683594"><ele>5.599999904632568</ele><time>2026-07-24T10:30:48Z</time></trkpt><trkpt lat="37.58396911621094" lon="127.02169799804688"><ele>5.800000190734863</ele><time>2026-07-24T10:30:49Z</time></trkpt><trkpt lat="37.583988189697266" lon="127.02168273925781"><ele>5.800000190734863</ele><time>2026-07-24T10:30:50Z</time></trkpt><trkpt lat="37.58401870727539" lon="127.02167510986328"><ele>6.0</ele><time>2026-07-24T10:30:51Z</time></trkpt><trkpt lat="37.58403778076172" lon="127.02167510986328"><ele>6.0</ele><time>2026-07-24T10:30:52Z</time></trkpt><trkpt lat="37.58406066894531" lon="127.02166748046875"><ele>6.199999809265137</ele><time>2026-07-24T10:30:53Z</time></trkpt><trkpt lat="37.584083557128906" lon="127.02165222167969"><ele>6.400000095367432</ele><time>2026-07-24T10:30:54Z</time></trkpt><trkpt lat="37.58409881591797" lon="127.0216293334961"><ele>6.400000095367432</ele><time>2026-07-24T10:30:55Z</time></trkpt><trkpt lat="37.58412170410156" lon="127.02161407470703"><ele>6.599999904632568</ele><time>2026-07-24T10:30:56Z</time></trkpt><trkpt lat="37.58415222167969" lon="127.02161407470703"><ele>6.599999904632568</ele><time>2026-07-24T10:30:57Z</time></trkpt><trkpt lat="37.584171295166016" lon="127.0216064453125"><ele>6.599999904632568</ele><time>2026-07-24T10:30:58Z</time></trkpt><trkpt lat="37.584197998046875" lon="127.02159881591797"><ele>6.599999904632568</ele><time>2026-07-24T10:30:59Z</time></trkpt><trkpt lat="37.58421325683594" lon="127.02159118652344"><ele>6.599999904632568</ele><time>2026-07-24T10:31:00Z</time></trkpt><trkpt lat="37.584232330322266" lon="127.0215835571289"><ele>6.400000095367432</ele><time>2026-07-24T10:31:01Z</time></trkpt><trkpt lat="37.58425521850586" lon="127.02157592773438"><ele>6.400000095367432</ele><time>2026-07-24T10:31:02Z</time></trkpt><trkpt lat="37.584266662597656" lon="127.02156829833984"><ele>6.400000095367432</ele><time>2026-07-24T10:31:03Z</time></trkpt><trkpt lat="37.58428955078125" lon="127.02156066894531"><ele>6.400000095367432</ele><time>2026-07-24T10:31:04Z</time></trkpt><trkpt lat="37.58430862426758" lon="127.02155303955078"><ele>6.400000095367432</ele><time>2026-07-24T10:31:05Z</time></trkpt><trkpt lat="37.58433151245117" lon="127.02154541015625"><ele>6.599999904632568</ele><time>2026-07-24T10:31:06Z</time></trkpt><trkpt lat="37.58435821533203" lon="127.02154541015625"><ele>6.599999904632568</ele><time>2026-07-24T10:31:07Z</time></trkpt><trkpt lat="37.58437728881836" lon="127.02154541015625"><ele>6.599999904632568</ele><time>2026-07-24T10:31:08Z</time></trkpt><trkpt lat="37.58440017700195" lon="127.02154541015625"><ele>6.599999904632568</ele><time>2026-07-24T10:31:09Z</time></trkpt><trkpt lat="37.58441925048828" lon="127.02154541015625"><ele>6.599999904632568</ele><time>2026-07-24T10:31:10Z</time></trkpt><trkpt lat="37.584434509277344" lon="127.02154541015625"><ele>6.599999904632568</ele><time>2026-07-24T10:31:11Z</time></trkpt><trkpt lat="37.58446502685547" lon="127.02153778076172"><ele>6.599999904632568</ele><time>2026-07-24T10:31:12Z</time></trkpt><trkpt lat="37.5844841003418" lon="127.02153778076172"><ele>6.599999904632568</ele><time>2026-07-24T10:31:13Z</time></trkpt><trkpt lat="37.584510803222656" lon="127.02153015136719"><ele>6.599999904632568</ele><time>2026-07-24T10:31:14Z</time></trkpt><trkpt lat="37.58454895019531" lon="127.02152252197266"><ele>6.599999904632568</ele><time>2026-07-24T10:31:15Z</time></trkpt><trkpt lat="37.58456802368164" lon="127.02151489257812"><ele>6.599999904632568</ele><time>2026-07-24T10:31:16Z</time></trkpt><trkpt lat="37.584590911865234" lon="127.0215072631836"><ele>6.599999904632568</ele><time>2026-07-24T10:31:17Z</time></trkpt><trkpt lat="37.58461380004883" lon="127.02149963378906"><ele>6.599999904632568</ele><time>2026-07-24T10:31:18Z</time></trkpt><trkpt lat="37.584632873535156" lon="127.02149200439453"><ele>6.599999904632568</ele><time>2026-07-24T10:31:19Z</time></trkpt><trkpt lat="37.58465576171875" lon="127.021484375"><ele>6.599999904632568</ele><time>2026-07-24T10:31:20Z</time></trkpt><trkpt lat="37.58467483520508" lon="127.02147674560547"><ele>6.599999904632568</ele><time>2026-07-24T10:31:21Z</time></trkpt><trkpt lat="37.58469772338867" lon="127.02147674560547"><ele>6.599999904632568</ele><time>2026-07-24T10:31:22Z</time></trkpt><trkpt lat="37.58472442626953" lon="127.0214614868164"><ele>6.599999904632568</ele><time>2026-07-24T10:31:23Z</time></trkpt><trkpt lat="37.58474349975586" lon="127.02145385742188"><ele>6.599999904632568</ele><time>2026-07-24T10:31:24Z</time></trkpt><trkpt lat="37.58476638793945" lon="127.02144622802734"><ele>6.599999904632568</ele><time>2026-07-24T10:31:25Z</time></trkpt><trkpt lat="37.58478546142578" lon="127.02143096923828"><ele>6.599999904632568</ele><time>2026-07-24T10:31:26Z</time></trkpt><trkpt lat="37.58480453491211" lon="127.02142333984375"><ele>6.599999904632568</ele><time>2026-07-24T10:31:27Z</time></trkpt><trkpt lat="37.58482360839844" lon="127.02140808105469"><ele>6.800000190734863</ele><time>2026-07-24T10:31:28Z</time></trkpt><trkpt lat="37.584842681884766" lon="127.02140045166016"><ele>6.800000190734863</ele><time>2026-07-24T10:31:29Z</time></trkpt><trkpt lat="37.58485794067383" lon="127.02139282226562"><ele>6.800000190734863</ele><time>2026-07-24T10:31:30Z</time></trkpt><trkpt lat="37.584869384765625" lon="127.02140045166016"><ele>6.800000190734863</ele><time>2026-07-24T10:31:31Z</time></trkpt><trkpt lat="37.584877014160156" lon="127.02140045166016"><ele>7.0</ele><time>2026-07-24T10:31:32Z</time></trkpt><trkpt lat="37.584877014160156" lon="127.02140808105469"><ele>7.0</ele><time>2026-07-24T10:31:33Z</time></trkpt></trkseg></trk></gpx>